town;parentCategory;subCategory;name;website;phone;address
Bryn Mawr;Food & Drink;Bakeries;Amaranth Gluten Free Bakery;https://www.amaranthbakery.com/s/order?location=11ec45a627613c299b46ac1f6bbba82c;+1 (717) 656-3533;N/A
Ridley Park;Food & Drink;Bakeries;Ardour Bakery + Coffee;https://ardourbakery.com/;+1 (610) 521-0450;N/A
Media;Food & Drink;Bakeries;Artisan Boulanger Patissier;N/A;+1 (484) 445-2150;N/A
East Lansdowne;Food & Drink;Bakeries;Ashley’s Cake Shoppe;N/A;+1 (610) 622-1037;N/A
Chadds Ford;Food & Drink;Bakeries;Aunt Kim's Gluten Free Bakery;https://www.facebook.com/Aunt-Kims-Gluten-Free-Bakery-100207331845148;+1 (610) 558-3300;N/A
Ardmore;Food & Drink;Bakeries;Browers Brownies;N/A;+1 (610) 896-7958;N/A
Chester;Food & Drink;Bakeries;Buono Bros Bakery;N/A;+1 (610) 876-9224;N/A
Springfield;Food & Drink;Bakeries;Choice Springfield Chimney Cleaning;https://chimneybestpa.com/;+1 (610) 600-9400;N/A
Springfield;Food & Drink;Bakeries;Cinnabon;https://locations.cinnabon.com/pa/springfield/1250-baltimore-pike;+1 (484) 440-2020;N/A
Springfield;Food & Drink;Bakeries;Cold Stone Creamery;https://www.coldstonecreamery.com/stores/21287;+1 (610) 328-7600;N/A
Broomall;Food & Drink;Bakeries;Crumbl;https://crumblcookies.com/pabroomall;+1 (484) 451-8411;N/A
Glen Mills;Food & Drink;Bakeries;Crumbl;https://crumblcookies.com/paglenmills;+1 (610) 750-9177;N/A
Wayne;Food & Drink;Bakeries;Crumbl;https://crumblcookies.com/pawayne;+1 (484) 393-2525;N/A
Glen Mills;Food & Drink;Bakeries;Cupcake Sisters;http://www.cupcakesistersbakery.com;+1 (484) 800-8940;N/A
Aston;Food & Drink;Bakeries;Devour Desserts Delco;https://devourdesserts.com;+1 (610) 497-1571;N/A
Upper Chichester;Food & Drink;Bakeries;Doctor Cookie's Corner;http://doctorcookiescorner.org;+1 (610) 551-3922;N/A
Upper Darby Township;Food & Drink;Bakeries;Dora's Bakery;https://dora-s-bakery.hub.biz;+1 (484) 461-3315;N/A
Bryn Mawr;Food & Drink;Bakeries;Frecon Farms;https://freconfarms.com;N/A;N/A
Darby;Food & Drink;Bakeries;Fred Water Ice Mini Market;http://fredswaterice.com;+1 (215) 399-7867;N/A
Bryn Mawr;Food & Drink;Bakeries;Hope's Cookies;http://www.hopescookies.com;+1 (610) 527-4488;N/A
Ardmore;Food & Drink;Bakeries;Insomnia Cookies;https://insomniacookies.com/;+1 (610) 880-8824;N/A
Bryn Mawr;Food & Drink;Bakeries;Insomnia Cookies;https://insomniacookies.com/;+1 (610) 595-4203;N/A
Broomall;Food & Drink;Bakeries;Jacquette's Bakery;http://jacquettesbakery.com/;+1 (610) 353-2550;N/A
Chester;Food & Drink;Bakeries;Jj Sweet Tooth Bakery;http://www.jjsweettooth.com/;+1 (610) 701-1856;N/A
Green Ridge;Food & Drink;Bakeries;Just Homemade Ice Cream;http://justhomemadeicecream.com/;+1 (610) 497-5550;N/A
Lansdowne;Food & Drink;Bakeries;Kia's Cakes;https://www.kiascakes.com;+1 (484) 461-3793;N/A
Garnet Valley;Food & Drink;Bakeries;Linda's Bakery;N/A;+1 (610) 497-3933;N/A
Darby;Food & Drink;Bakeries;Manna Bakery;N/A;+1 (224) 769-6933;N/A
Prospect Park;Food & Drink;Bakeries;Maria's Bakery;https://mariasbakerydelco.com;+1 (610) 532-4720;N/A
Glen Mills;Food & Drink;Bakeries;Metropolitan Bakery;N/A;+1 (610) 361-4010;N/A
Yeadon;Food & Drink;Bakeries;Mission Burrito;N/A;+1 (610) 622-6900;N/A
Lansdowne;Food & Drink;Bakeries;My Old Place Bakery;https://www.facebook.com/MyOldPlaceBakery/;+1 (610) 259-4000;N/A
Springfield;Food & Drink;Bakeries;Nothing Bundt Cakes;https://www.nothingbundtcakes.com/all-products/;+1 (484) 474-1133;N/A
Wayne;Food & Drink;Bakeries;Nothing Bundt Cakes;https://www.nothingbundtcakes.com/all-products/;+1 (610) 340-3440;N/A
Chadds Ford;Food & Drink;Bakeries;Oso Sweet Bakery Cafe;http://ososweet.shop;+1 (610) 880-8118;N/A
Swarthmore;Food & Drink;Bakeries;Pastry Pants Bakery;http://pastrypants.com;+1 (610) 328-3963;N/A
Chester;Food & Drink;Bakeries;Phatso's Bakery;http://www.phatsosbakery.com/;+1 (610) 874-4240;N/A
Darby;Food & Drink;Bakeries;Philly Bakery;N/A;+1 (267) 223-5485;N/A
Yeadon;Food & Drink;Bakeries;Pound Cake Heaven;N/A;+1 (610) 613-6206;N/A
Chester;Food & Drink;Bakeries;Scoop’d;N/A;N/A;N/A
Drexel Hill;Food & Drink;Bakeries;SophistiCakes Bakery;https://www.sophisticakespa.com;+1 (610) 626-7900;N/A
Ardmore;Food & Drink;Bakeries;Stoltzfus Family Foods;https://www.stoltzfusfamilyfoods.com;+1 (610) 658-2455;N/A
Lansdowne;Food & Drink;Bakeries;Sweet Gardenia;https://www.sweetgardeniabakes.com;+1 (866) 947-9834;N/A
Havertown;Food & Drink;Bakeries;Sweets on Darby;http://sweetsondarby.com;+1 (610) 550-3305;N/A
Brookhaven;Food & Drink;Bakeries;TAFF Treats;http://www.tafftreats.com;+1 (484) 480-8784;N/A
Garnet Valley;Food & Drink;Bakeries;Tasty Baking Co;N/A;+1 (484) 800-8082;N/A
Bryn Mawr;Food & Drink;Bakeries;The Bakery House;http://www.thebakeryhouse.net/;+1 (610) 525-4139;N/A
Wayne;Food & Drink;Bakeries;The Chelsea Bakery;https://thechelseabakery.com/;N/A;N/A
Media;Food & Drink;Bakeries;The Cookie Plug;https://cookieplug.com;+1 (717) 918-0104;N/A
Wayne;Food & Drink;Bakeries;The Happy Mixer Gluten Free Bakery;https://www.thehappymixer.com;+1 (484) 580-6680;N/A
Ardmore;Food & Drink;Bakeries;The Ultimate Bake Shoppe;https://ultimatebakeshoppeofardmore.com;+1 (610) 649-2332;N/A
Wayne;Food & Drink;Bakeries;The Ultimate Bake Shoppe Of Wayne;N/A;+1 (610) 687-5620;N/A
Haverford;Food & Drink;Bakeries;Tous Les Jours;http://tljus.com;+1 (484) 416-3133;N/A
Wayne;Food & Drink;Bakeries;Tous Les Jours;http://tljus.com;+1 (484) 580-8071;N/A
Prospect Park;Food & Drink;Bakeries;Yum Cha Bubble Tea;https://yumchabt.com;+1 (610) 288-3596;N/A
Wayne;Food & Drink;Bars;118 North;http://www.118northwayne.com;+1 (610) 971-2628;N/A
Chester;Food & Drink;Bars;2701 sports bar and grill;https://www.facebook.com/2701sportsbarngrill/;+1 (484) 480-3088;N/A
Chadds Ford;Food & Drink;Bars;2SP Tap House;https://2sptaphouse.com;+1 (484) 840-8736;N/A
Wayne;Food & Drink;Bars;333 Belrose Bar & Grill;http://www.333belrose.com/;+1 (610) 293-1000;N/A
Upper Darby;Food & Drink;Bars;69th Street Lounge;N/A;+1 (610) 713-9447;N/A
Havertown;Food & Drink;Bars;Al Pastor;https://eatalpastorhavertown.com;+1 (484) 455-4585;N/A
Wayne;Food & Drink;Bars;Alessandro's Wood Fired Italian & Bar;https://alessandroswoodfired.com;+1 (484) 580-6786;N/A
Chadds Ford;Food & Drink;Bars;Alexander's;N/A;N/A;N/A
Chadds Ford;Food & Drink;Bars;Antica Restaurant & Wine Bar;https://www.anticapa.com/;+1 (484) 770-8631;N/A
Folsom;Food & Drink;Bars;Applebee's Grill + Bar;https://restaurants.applebees.com/en-us/pa/folsom/320-macdade-blvd.-97017;+1 (610) 461-7573;N/A
Green Ridge;Food & Drink;Bars;Applebee's Grill + Bar;https://restaurants.applebees.com/en-us/pa/aston/4301-pennell-road-76022;+1 (610) 485-3528;N/A
Havertown;Food & Drink;Bars;Applebee's Grill + Bar;https://restaurants.applebees.com/en-us/pa/havertown/1305-west-chester-pike-99081;+1 (610) 449-2296;N/A
Media;Food & Drink;Bars;Ariano;http://www.ariano.net;+1 (610) 892-6944;N/A
Chester Heights;Food & Drink;Bars;Ashley's Restaurant & Bar;https://www.ashleysrandb.com;+1 (610) 572-2323;N/A
Lansdowne;Food & Drink;Bars;B's Que Shot Lounge;N/A;+1 (610) 259-2877;N/A
Ardmore;Food & Drink;Bars;Bam Bam Kitchen;N/A;+1 (484) 844-7827;N/A
Bryn Mawr;Food & Drink;Bars;Bar Avalon;https://www.avalonrestaurant.net;+1 (610) 520-9700;N/A
Media;Food & Drink;Bars;Barnaby's of America;http://www.barnabysaston.com;+1 (610) 558-1929;N/A
Havertown;Food & Drink;Bars;Barnabys Restaurant & pub;http://www.barnabyshavertown.com/;+1 (610) 789-1885;N/A
Ardmore;Food & Drink;Bars;Beer Frame;N/A;+1 (484) 829-0026;N/A
Newtown Square;Food & Drink;Bars;Bonefish Grill;https://locations.bonefishgrill.com/pennsylvania/newtown-square/4889-w.-chester-pike;+1 (610) 355-1784;N/A
Chester;Food & Drink;Bars;Boots & Bonnets;;+1 (484) 483-9850;N/A
Chadds Ford;Food & Drink;Bars;Brandywine Prime;http://www.brandywineprime.com;+1 (610) 388-8088;N/A
Havertown;Food & Drink;Bars;Brick & Brew;https://www.bricknbrewpub.com/havertown;+1 (484) 455-7250;N/A
Media;Food & Drink;Bars;Brick & Brew Media;https://www.bricknbrewpub.com/media;+1 (484) 443-8441;N/A
Clifton Heights;Food & Drink;Bars;Broadway Bar & Grille;https://clamtavern.net/68-2/;+1 (484) 461-2802;N/A
Norwood;Food & Drink;Bars;Bud's Cafe;N/A;+1 (484) 494-0075;N/A
Glen Mills;Food & Drink;Bars;Buffalo Wild Wings;https://www.buffalowildwings.com/locations/us/pa/glen-mills/920-baltimore-pike/sports-bar-843;+1 (484) 840-9150;N/A
Havertown;Food & Drink;Bars;Burke's Inn;http://www.burkesinn.com;+1 (610) 789-1668;N/A
Upper Darby;Food & Drink;Bars;Busty's Tavern;http://bustys-tavern-inc.edan.io;+1 (610) 789-9836;N/A
Chester;Food & Drink;Bars;C-Bar Ultra Lounge;https://www.caesars.com/harrahs-philly/things-to-do/c-bar#.VjeN77erSUk;+1 (484) 490-1800;N/A
Bryn Mawr;Food & Drink;Bars;Carina Sorella;https://www.carinasorella.com;+1 (610) 596-9166;N/A
Yeadon;Food & Drink;Bars;Carlette's Hideaway;https://www.carletteshideaway.com;+1 (484) 469-4301;N/A
Media;Food & Drink;Bars;Casa Mia Italian Bar & Grill;http://www.casamiamedia.com;+1 (610) 891-9090;N/A
Newtown Square;Food & Drink;Bars;Casey's Public House;http://www.caseysns.com/;+1 (610) 353-1212;N/A
Ridley Park;Food & Drink;Bars;Casey's Ridley Park;https://www.caseysrp.com;+1 (484) 540-7524;N/A
Upper Darby;Food & Drink;Bars;Cawley's Irish Pub;https://www.facebook.com/Cawleys-Irish-Pub-151965754842411/;+1 (610) 449-1194;N/A
Glenolden;Food & Drink;Bars;Cedar Craft & Kitchen;http://barcck.com;+1 (610) 537-7003;N/A
Chadds Ford;Food & Drink;Bars;Chadds Ford Tavern;https://www.thecftavern.com;+1 (484) 800-4084;N/A
Folcroft;Food & Drink;Bars;Chasers Tavern;N/A;+1 (610) 583-5720;N/A
Havertown;Food & Drink;Bars;Cheese Club;http://www.woolseychiropractic.com;+1 (610) 446-9919;N/A
Upper Darby;Food & Drink;Bars;Chickie's & Pete's;https://chickiesandpetes.com/location/drexel-hill-2/;+1 (610) 853-2713;N/A
Brookhaven;Food & Drink;Bars;Chili's;https://www.chilis.com/locations/us/pennsylvania/brookhaven/brookhaven;+1 (484) 480-3442;N/A
Wayne;Food & Drink;Bars;Christopher's: A Neighborhood Place;http://www.christophersaneighborhoodplace.com/;+1 (610) 687-6558;N/A
Chester;Food & Drink;Bars;Club LSA;https://www.philadelphiaunion.com/tickets/club-lsa;+1 (877) 218-6466;N/A
Essington;Food & Drink;Bars;Coaches Bar and Grille;https://www.facebook.com/coachesbarandgrille/;+1 (610) 521-6668;N/A
Upper Chichester;Food & Drink;Bars;Concord Billiard Club;N/A;N/A;N/A
Chesterbrook;Food & Drink;Bars;Cool River;http://www.coolrivercafe.com/;+1 (610) 647-6700;N/A
Upper Chichester;Food & Drink;Bars;Copley's Cafe & Tavern;https://www.facebook.com/CopleysTavern/;+1 (610) 859-9222;N/A
Bryn Mawr;Food & Drink;Bars;Cozy Lounge;https://www.cozypa.com;+1 (484) 380-2125;N/A
Darby;Food & Drink;Bars;Crab Tavern;N/A;+1 (610) 534-7988;N/A
Springfield;Food & Drink;Bars;Craft Beer Store;http://www.craftbeerspringfield.com;+1 (610) 990-3013;N/A
Drexel Hill;Food & Drink;Bars;Craig's Tavern;http://craigs-tavern.poi.place;+1 (610) 853-0898;N/A
Lansdowne;Food & Drink;Bars;Dan's Corner Tavern;N/A;+1 (484) 461-8733;N/A
Wayne;Food & Drink;Bars;DanDan;https://www.dandanrestaurant.com/location/wayne-1/;+1 (484) 580-8558;N/A
Lansdowne;Food & Drink;Bars;Danny's Corner Tavern;https://danny-s-corner-tavern.hub.biz;+1 (610) 284-2929;N/A
Glen Mills;Food & Drink;Bars;Del Pez Mexican Gastropub;https://www.delpezmexicanpub.com;+1 (484) 842-1363;N/A
Drexel Hill;Food & Drink;Bars;DeMarco's;N/A;+1 (610) 622-4222;N/A
Sharon Hill;Food & Drink;Bars;Dixon's Lounge;N/A;+1 (610) 461-2462;N/A
Ridley Park;Food & Drink;Bars;Dolan’s Bar;http://www.dolansbar.com;+1 (484) 430-1354;N/A
Crum Lynne;Food & Drink;Bars;Don's Bar;N/A;+1 (610) 874-9919;N/A
Drexel Hill;Food & Drink;Bars;Drexel Vapes & Tobacco;http://drexelvapesandtobacco.com;+1 (484) 461-2404;N/A
Garnet Valley;Food & Drink;Bars;Duffer's Mill;https://www.dufferspa.com/location/duffers-mill/;+1 (610) 859-0011;N/A
Glen Mills;Food & Drink;Bars;Duffer's Tavern;https://www.dufferspa.com/location/duffers-tavern/;+1 (610) 358-5050;N/A
Bryn Mawr;Food & Drink;Bars;EXIT 13;http://www.exit13gastrobar.com;+1 (610) 525-3842;N/A
Upper Darby;Food & Drink;Bars;Fedora Blues Club;N/A;+1 (267) 307-5800;N/A
Essington;Food & Drink;Bars;Flashbacks;https://www.facebook.com/Flashbacks-Bar-Grille-342804896552929/;+1 (610) 521-9007;N/A
Radnor;Food & Drink;Bars;Fleming's;https://www.flemingssteakhouse.com/Locations/PA/Radnor;+1 (610) 688-9463;N/A
Bryn Mawr;Food & Drink;Bars;Flip and Bailey's;http://flipandbaileys.com;+1 (610) 527-4826;N/A
Folsom;Food & Drink;Bars;Frontier Saloon;N/A;+1 (610) 534-1424;N/A
Drexel Hill;Food & Drink;Bars;Gambols Big G Cafe;http://gambolscafecom.yolasite.com;+1 (610) 259-2702;N/A
Bryn Mawr;Food & Drink;Bars;Garrett Hill Ale House;http://www.garretthillalehouse.com;+1 (610) 519-0500;N/A
Aston;Food & Drink;Bars;Gatsby's Bar & Grill;https://gatsbysbargrill.com/;+1 (610) 494-4500;N/A
Lansdowne;Food & Drink;Bars;Glow and Puff;N/A;N/A;N/A
Bryn Mawr;Food & Drink;Bars;Grand Middle East;http://grandmiddleeast.com;N/A;N/A
Aston;Food & Drink;Bars;Gridiron Pub;https://gridironpub.com;+1 (484) 483-9301;N/A
Rosemont;Food & Drink;Bars;Gullifty's;http://www.gulliftys.com/;+1 (610) 525-1851;N/A
Holmes;Food & Drink;Bars;Haggerty's Cafe;https://www.facebook.com/haggertyscafe;+1 (610) 461-9534;N/A
Havertown;Food & Drink;Bars;Hangover Sports Bar;http://hangover-cafe-bar.poi.place;+1 (484) 453-8100;N/A
Drexel Hill;Food & Drink;Bars;Hanrahan's Irish Pub;https://www.facebook.com/Hanrahans-Irish-Pub-172942570007701/;+1 (484) 462-3533;N/A
Chester;Food & Drink;Bars;Hayes Lounge;https://hayes-lounge-pa-1.hub.biz;+1 (610) 485-8580;N/A
Glen Mills;Food & Drink;Bars;Heroes Bar & Grill;https://heroesbardelco.com;+1 (610) 358-3600;N/A
Newtown Square;Food & Drink;Bars;Hiramasa;https://hiramasapa.com;+1 (484) 420-4023;N/A
Woodlyn;Food & Drink;Bars;Hunts Annex Lounge;https://www.facebook.com/Hunts1311/;+1 (610) 833-2344;N/A
Media;Food & Drink;Bars;Idlewild;http://www.townehousepa.com;+1 (484) 445-2041;N/A
Clifton Heights;Food & Drink;Bars;Illusions Banquet Hall and Sports Bar;https://www.illusionssoulfoodcafe.com;+1 (484) 463-7333;N/A
Havertown;Food & Drink;Bars;Ivy Inn;http://www.ivyinn.org;+1 (610) 446-8026;N/A
Havertown;Food & Drink;Bars;J D McGillicuddy's;http://www.jdmcgillicuddys.com;+1 (484) 454-5289;N/A
Essington;Food & Drink;Bars;J.D. McGillicuddy's Tinicum;https://mcgillicuddystinicum.com;+1 (610) 521-9860;N/A
Primos;Food & Drink;Bars;J.T. Brewski’s Pub;http://jtbrewskispub.com;+1 (610) 626-6670;N/A
Ardmore;Food & Drink;Bars;Jack McShea's;https://www.jackmcsheas-ardmore.com;+1 (484) 416-3547;N/A
Lansdowne;Food & Drink;Bars;Jamey's House of Music;https://www.jameyshouseofmusic.com;+1 (215) 477-9985;N/A
Ardmore;Food & Drink;Bars;John Henry's Pub;https://johnhenryspubardmore.com;+1 (610) 726-9193;N/A
Prospect Park;Food & Drink;Bars;John Morton's Tavern;N/A;+1 (610) 237-7130;N/A
Essington;Food & Drink;Bars;John Robert Cellars;https://www.facebook.com/JohnRobertCellarsPA;+1 (484) 494-6576;N/A
Media;Food & Drink;Bars;John's Grille;http://www.johnsgrille.com;+1 (610) 565-8251;N/A
Drexel Hill;Food & Drink;Bars;Johnny B's Place;https://www.facebook.com/p/Johnny-Bs-Place-100069360791057/;+1 (610) 394-4030;N/A
Essington;Food & Drink;Bars;Kelly's Corner;https://kelly-s-corner-3.mapssite.site;+1 (610) 521-4268;N/A
Bryn Mawr;Food & Drink;Bars;Kelly's Taproom;http://kellystaproom.com;+1 (610) 520-9344;N/A
Media;Food & Drink;Bars;La Porta Ristorante;http://www.laportarestaurant.com;+1 (610) 358-5104;N/A
Media;Food & Drink;Bars;La Porta Via;https://laportarestaurant.com;+1 (610) 358-5104;N/A
Newtown Square;Food & Drink;Bars;Laff Out Loud Comedy;https://heavyhittasofcomedy.com/;+1 (215) 608-0380;N/A
Chester;Food & Drink;Bars;Larimer.brewhouse;https://www.facebook.com/Larimerbrewhouse-105988278144877/;+1 (484) 480-3918;N/A
Marcus Hook;Food & Drink;Bars;Lefty's Irish Pub;http://www.leftysirishpub.com;+1 (610) 494-9957;N/A
Upper Chichester;Food & Drink;Bars;Legends Bar and Grill;https://legendsbardelco.com/;N/A;N/A
Holmes;Food & Drink;Bars;Liberty Tavern Woodlyn;https://www.facebook.com/profile.php?id=100090260588896;+1 (484) 487-0200;N/A
Ardmore;Food & Drink;Bars;Local Wine & Kitchen;http://www.localwineandkitchen.com/;+1 (610) 896-4740;N/A
Ardmore;Food & Drink;Bars;Lola's Garden;https://www.lolasgardenrestaurant.com;+1 (484) 412-8011;N/A
Glen Mills;Food & Drink;Bars;Maduros Cigar Lounge;http://www.maduroscigarshop.com;+1 (855) 924-4277;N/A
Chester;Food & Drink;Bars;Maggie May's Campus Pub;https://www.facebook.com/maggiescp/?ref=page_internal;+1 (610) 490-0104;N/A
Ardmore;Food & Drink;Bars;Manatawny Still Works;https://www.manatawnystillworks.com/ardmore;+1 (484) 624-8271;N/A
Havertown;Food & Drink;Bars;Manoa Tavern;http://manoatavern.com;+1 (610) 446-9726;N/A
Broomall;Food & Drink;Bars;Marple Public House;https://www.facebook.com/@marplepublichouse/;+1 (484) 420-4502;N/A
Aston;Food & Drink;Bars;Martin's Crest Tavern;N/A;+1 (610) 358-4035;N/A
Aston;Food & Drink;Bars;Martin's Taphouse;N/A;+1 (610) 459-1117;N/A
Prospect Park;Food & Drink;Bars;Marty Magee's Irish Pub;http://facebook.com/MartyMagees;+1 (610) 583-9880;N/A
Norwood;Food & Drink;Bars;Matthew's Tavern;https://matthew-s-tavern.hub.biz;+1 (610) 534-0143;N/A
Essington;Food & Drink;Bars;McBride's Bar & Grill;https://www.facebook.com/McBrides401/;+1 (484) 494-6940;N/A
Ardmore;Food & Drink;Bars;McCloskey's Tavern;http://mccloskeystavern.com;+1 (610) 642-9280;N/A
Springfield;Food & Drink;Bars;McGlone's Stanley Kup Inn;N/A;+1 (610) 543-3547;N/A
Ardmore;Food & Drink;Bars;McSorleys Ale House;https://themcsorleysalehouse.com;+1 (610) 642-1370;N/A
Upper Darby;Food & Drink;Bars;Mickey's Tavern;N/A;+1 (610) 352-9760;N/A
Folsom;Food & Drink;Bars;Mikey's Place;http://mikeys-place.jany.io;+1 (610) 461-9410;N/A
Media;Food & Drink;Bars;Miller's Ale House;https://millersalehouse.com/locations/media/;+1 (484) 441-0037;N/A
Springfield;Food & Drink;Bars;Miller's Ale House;https://millersalehouse.com/locations/springfield/;+1 (610) 544-2635;N/A
Essington;Food & Drink;Bars;Monaghan's Irish Pub;http://www.monaghanspub.com/;+1 (610) 595-0303;N/A
Clifton Heights;Food & Drink;Bars;Murray's Bar & Grille;https://www.facebook.com/p/Murrays-Bar-and-Grille-100057603303354/;+1 (610) 623-5971;N/A
Prospect Park;Food & Drink;Bars;Next Door Restaurant & Gastro-Pub;https://nextdoorgastro-pub.com;+1 (484) 494-1193;N/A
Springfield;Food & Drink;Bars;O'Connell's Tavern;https://www.facebook.com/OConnells-Tavern-100281988185878/;+1 (610) 543-9601;N/A
Media;Food & Drink;Bars;Off The Rail;http://offtherailmedia.com;+1 (484) 442-8669;N/A
Springfield;Food & Drink;Bars;Old Original Nick's Roast Beef;http://www.nicksroastbeef.com;+1 (610) 690-1112;N/A
Media;Food & Drink;Bars;Old State Tavern;https://www.facebook.com/OLDSTATETAVERN/;+1 (610) 566-9920;N/A
Broomall;Food & Drink;Bars;P.J. Whelihan's Pub + Restaurant;https://www.pjspub.com/about.php?loc=Lawrence_Park;+1 (610) 848-4700;N/A
Newtown Square;Food & Drink;Bars;P.J. Whelihan's Pub + Restaurant;https://www.pjspub.com/about.php?loc=Newtown_Square;+1 (610) 848-4100;N/A
Media;Food & Drink;Bars;Pairings Cigar Bar;http://www.pairingscigarbar.com/;+1 (610) 565-1895;N/A
Ardmore;Food & Drink;Bars;Palombaro Club;http://palombaroclub.com;+1 (610) 642-9730;N/A
Chadds Ford;Food & Drink;Bars;Penns Woods Winery;http://www.pennswoodswinery.com/;+1 (610) 459-0808;N/A
Essington;Food & Drink;Bars;Pennsylvania Wine Company;N/A;N/A;N/A
Chester;Food & Drink;Bars;Persona Lounge;https://www.facebook.com/Persona-Lounge-Grille-103757291713066/;+1 (215) 606-8402;N/A
Upper Darby;Food & Drink;Bars;Pica's Restaurant;https://picas-restaurantud.com;+1 (610) 789-7770;N/A
Media;Food & Drink;Bars;Pinocchio’s Restaurant;https://www.pinpizza.com;+1 (610) 566-7767;N/A
Drexel Hill;Food & Drink;Bars;Playhouse Lanes;N/A;+1 (610) 259-7070;N/A
Ardmore;Food & Drink;Bars;Positano Ristorante;http://www.positanoristorante.com/;+1 (610) 896-8298;N/A
Chester;Food & Drink;Bars;Primepoint Club;https://www.philadelphiaunion.com/tickets/premium/club-seats;+1 (610) 859-3100;N/A
Ridley Park;Food & Drink;Bars;R Park Tavern;N/A;+1 (484) 540-8296;N/A
Chester;Food & Drink;Bars;Red Fire American Grill;https://red-fire-american-grill.mapssite.site/;+1 (610) 521-9600;N/A
Folcroft;Food & Drink;Bars;Red Lantern Tavern;N/A;+1 (610) 583-9811;N/A
Ardmore;Food & Drink;Bars;Ripplewood Whiskey & Craft;http://www.ripplewoodbar.com;+1 (610) 486-7477;N/A
Haverford;Food & Drink;Bars;Roache & O'Brien;https://www.facebook.com/Roache-OBrien-158894670811951/;+1 (610) 527-6308;N/A
Wayne;Food & Drink;Bars;Rosalie;http://www.rosaliewayne.com;+1 (610) 977-0600;N/A
Clifton Heights;Food & Drink;Bars;Rose Bar & Kitchen;https://business.facebook.com/rosebarandkitchen/?ref=py_c;+1 (484) 461-1532;N/A
Ridley Park;Food & Drink;Bars;Rosemary;http://rosemaryrp.com;+1 (610) 671-3770;N/A
Ardmore;Food & Drink;Bars;Rusty Nail;http://www.thenail1.com;+1 (610) 649-6245;N/A
Upper Darby;Food & Drink;Bars;SA CAFE;http://sacafepa.com;+1 (610) 999-8264;N/A
Upper Darby;Food & Drink;Bars;Sabor Latino Restaurant - Night Club;N/A;+1 (610) 352-8414;N/A
Folsom;Food & Drink;Bars;Santino's Tap & Table;http://santinostapandtable.com;+1 (610) 572-7270;N/A
Springfield;Food & Drink;Bars;Saxers Pub;https://saxerspub.com;+1 (484) 472-6176;N/A
Secane;Food & Drink;Bars;Secane Station Tavern;https://secane-station-tavern.hub.biz;+1 (610) 544-8076;N/A
Newtown Square;Food & Drink;Bars;Sedona Taphouse;https://sedonataphouse.com/locations/newtown-square-pa;+1 (484) 420-6284;N/A
Media;Food & Drink;Bars;Sligo;http://www.sligomedia.com;+1 (610) 566-5707;N/A
Ardmore;Food & Drink;Bars;Soley's Tavern;N/A;+1 (610) 649-1925;N/A
Eddystone;Food & Drink;Bars;Spada's Cafe;http://spadas-cafe.edan.io;+1 (610) 874-3966;N/A
Media;Food & Drink;Bars;State Street Pub;https://www.statestreetpubmedia.com;+1 (610) 627-2515;N/A
Drexel Hill;Food & Drink;Bars;Station Tap;http://www.stationtap.com;+1 (484) 469-3222;N/A
Media;Food & Drink;Bars;Stephen's on State;https://stephensonstate.com/?fbclid=IwAR32jGQFrwOakLSBlzRR0qN9uSwtPePC5rFN7NfrdzUl-HMwef15D-JOIss;+1 (610) 891-8900;N/A
Ridley Park;Food & Drink;Bars;Stinger's Waterfront;http://www.stingerssecane.com;+1 (484) 540-7868;N/A
Drexel Hill;Food & Drink;Bars;Streetlight Kitchen & Bar;http://streetlightdrexelhill.com;+1 (484) 461-9823;N/A
Aston;Food & Drink;Bars;Sundance Saloon;https://www.facebook.com/sundancesaloonaston/;+1 (610) 494-9725;N/A
Media;Food & Drink;Bars;Tap 24;https://tap24media.com;+1 (484) 442-8839;N/A
Springfield;Food & Drink;Bars;Tavola;https://tavolas.com;+1 (610) 543-2100;N/A
Wayne;Food & Drink;Bars;Teresa's Cafe;http://www.teresas-cafe.com;+1 (610) 293-9909;N/A
Folcroft;Food & Drink;Bars;Terry's Too;https://riny.top/terry-s-too;+1 (484) 494-0811;N/A
Media;Food & Drink;Bars;The 320 Market Cafe;http://the320marketcafe.com/;+1 (610) 565-8320;N/A
Newtown Square;Food & Drink;Bars;The Ale House;http://www.alehousenewtownsquare.com/;+1 (610) 353-1618;N/A
Bryn Mawr;Food & Drink;Bars;The Brick Bar;N/A;+1 (610) 525-8199;N/A
Clifton Heights;Food & Drink;Bars;The Champagne Room At Polish American Citizens Association;http://pacach.com;+1 (610) 299-4513;N/A
Havertown;Food & Drink;Bars;The Crossbar;http://www.thecrossbarhavertown.com/;+1 (610) 449-4200;N/A
Glenolden;Food & Drink;Bars;The Fainting Goat;https://www.faintinggoatpa.com;+1 (484) 497-8609;N/A
Wayne;Food & Drink;Bars;The Goat's Beard;https://www.thegoatsbeardphilly.com/wayne-location;+1 (484) 584-4979;N/A
Wayne;Food & Drink;Bars;The Great American Pub;https://thegreatamericanpub.com/wayne/;+1 (610) 964-9535;N/A
Bryn Mawr;Food & Drink;Bars;The Grog Grill;https://thegroggrill.com;+1 (610) 527-5870;N/A
Upper Chichester;Food & Drink;Bars;The Hideout Cigar Shop & Lounge;http://www.hideoutcigarshop.net;+1 (610) 494-4100;N/A
Clifton Heights;Food & Drink;Bars;The Original Clam Tavern;http://www.clamtavern.net;+1 (610) 623-9537;N/A
Green Ridge;Food & Drink;Bars;The Pub at Ice Works;http://www.iceworks.net;+1 (610) 497-2200;N/A
Bryn Mawr;Food & Drink;Bars;The Pullman Restaurant & Bar;https://thepullmanrestaurant.com;+1 (610) 727-0777;N/A
Holmes;Food & Drink;Bars;The Ridley House;https://www.ridleyhousepa.com;+1 (610) 522-5400;N/A
Media;Food & Drink;Bars;The Shebeen;https://www.townehousepa.com;N/A;N/A
Morton;Food & Drink;Bars;The Social on Morton;https://www.thesocialonmorton.com;+1 (215) 933-1557;N/A
Ridley Park;Food & Drink;Bars;The Stogie Lounge;N/A;+1 (610) 205-9995;N/A
Media;Food & Drink;Bars;The Towne House;https://www.townehousepa.com;+1 (484) 445-2041;N/A
Havertown;Food & Drink;Bars;The Yard Pub;https://theyardhavertown.com/;+1 (610) 789-1414;N/A
Upper Chichester;Food & Drink;Bars;Thirsty Bulldog Sports Bar & Grill;https://riny.top/thirsty-bulldog-sports-bar;+1 (610) 485-8040;N/A
Lansdowne;Food & Drink;Bars;Tipsy McStaggers Saloon;N/A;+1 (610) 259-9143;N/A
Folsom;Food & Drink;Bars;Tom N Jerry's;http://tomnjerrys.com;+1 (610) 586-1008;N/A
Drexel Hill;Food & Drink;Bars;Trophy Tavern;N/A;+1 (610) 623-1224;N/A
Chester;Food & Drink;Bars;Truth Social Lounge;https://www.instagram.com/truthsociallounge/;+1 (610) 601-9167;N/A
Upper Darby;Food & Drink;Bars;Waterford Inn;http://waterford-inn.com/;+1 (610) 352-7300;N/A
Havertown;Food & Drink;Bars;Westgate Pub;https://www.thewestgatepub.com;+1 (610) 446-3030;N/A
Aston;Food & Drink;Breweries;2SP Brewing Company;https://www.2spbrewing.com;+1 (484) 483-7860;N/A
Glenolden;Food & Drink;Restaurants;39 North Taproom and Grille;http://39northtaproom.com/;+1 (484) 497-5389;N/A
Drexel Hill;Food & Drink;Breweries;Artillery Brewing;https://www.artillerybrewing.com;+1 (610) 626-2937;N/A
Wayne;Food & Drink;Restaurants;Bottle & Can;https://www.facebook.com/Bottlencan/;+1 (610) 688-5440;N/A
Glen Mills;Food & Drink;Breweries;Crown Tavern;http://crowninconcord.com;+1 (610) 361-9800;N/A
Glen Mills;Food & Drink;Restaurants;Deer Creek Malthouse;http://deercreekmalt.com;+1 (717) 746-6258;N/A
Aston;Food & Drink;Breweries;Four Fingers Brewery;https://www.facebook.com/FourFingersBeer/;+1 (610) 241-1212;N/A
Media;Food & Drink;Breweries;Iron Hill Brewery & Restaurant;https://www.ironhillbrewery.com/media-pa;+1 (610) 627-9000;N/A
Bryn Mawr;Food & Drink;Breweries;La Cabra Brewing Smokehouse;https://www.lacabrabrewing.com/smokehouse;+1 (610) 526-2337;N/A
Media;Food & Drink;Restaurants;Pinocchio’s Restaurant;https://www.pinpizza.com;+1 (610) 566-7767;N/A
Swarthmore;Food & Drink;Breweries;Ship Bottom Blendery & Barrel House;https://shipbottombrewery.com/locations-ship-bottom-brewery-blendery-barrel-house/;+1 (610) 467-5804;N/A
Media;Food & Drink;Breweries;Sterling Pig Brewery - Media;https://sterlingpig.com/media/;+1 (484) 444-2526;N/A
Ardmore;Food & Drink;Breweries;Tired Hands Brewing Company;http://www.tiredhands.com;+1 (484) 413-2983;N/A
Ardmore;Food & Drink;Breweries;Tired Hands Brewing Company Fermentaria;http://www.tiredhands.com;+1 (610) 896-7621;N/A
Wayne;Food & Drink;Cafes;Angelo's Cafe;N/A;+1 (610) 809-7229;N/A
Broomall;Food & Drink;Cafes;Apple Walnut Café;http://applewalnut.com;+1 (610) 353-1384;N/A
Ardmore;Food & Drink;Cafes;Ardmore Asian Cafe;N/A;+1 (484) 417-6668;N/A
Ardmore;Food & Drink;Cafes;Ardmore Station Cafe;https://www.ardmorecafe.com;+1 (610) 642-3889;N/A
Media;Food & Drink;Cafes;Artisan Boulanger Patissier;N/A;+1 (484) 445-2150;N/A
Primos;Food & Drink;Cafes;B&B Restaurant and Cafe ;https://cafebb.getbento.com;+1 (610) 394-1212;N/A
Media;Food & Drink;Cafes;Bittersweet Kitchen;https://www.eatatbittersweet.com;+1 (610) 566-1660;N/A
Chester;Food & Drink;Cafes;Brunchaholics - Chester;N/A;+1 (484) 369-0901;N/A
Bryn Mawr;Food & Drink;Cafes;Bryn Mawr Cafe;https://mainline.healthcaredish.com/en/locationsandmenus/brynmawrhospital/brynmawrcafe/;N/A;N/A
Norwood;Food & Drink;Cafes;Bud's Cafe;N/A;+1 (484) 494-0075;N/A
Media;Food & Drink;Cafes;Burlap And Bean Coffee;http://www.burlapandbean.com;+1 (484) 444-2533;N/A
Wayne;Food & Drink;Cafes;Cafe Fleur;https://valleyforgeflowers.com/locations-COTTAGECAFE.htm;+1 (610) 687-5566;N/A
Media;Food & Drink;Cafes;Café Isla;https://www.facebook.com/cafeislamedia/;+1 (610) 627-2077;N/A
Yeadon;Food & Drink;Cafes;Cafe LeMont's;N/A;+1 (610) 622-5580;N/A
Glen Mills;Food & Drink;Cafes;Cafe Services;N/A;N/A;N/A
Media;Food & Drink;Cafes;Cafesphere;https://www.cafesphere.cafe;N/A;N/A
Lansdowne;Food & Drink;Cafes;Camellia Coffee House;https://www.camelliacoffeehouse.com;+1 (484) 898-5592;N/A
Norwood;Food & Drink;Cafes;Cat Nook Cafe;https://www.catnookcafe.com;+1 (484) 540-9830;N/A
Chadds Ford;Food & Drink;Cafes;Chadds Ford Coffee House;https://www.instagram.com/chaddsford.coffeehouse/;+1 (484) 776-5141;N/A
Ardmore;Food & Drink;Cafes;Char & Stave;https://www.charandstave.com;+1 (484) 414-4102;N/A
Boothwyn;Food & Drink;Cafes;Chi Cafe;http://www.chicafeboothwyn.com;+1 (484) 480-5399;N/A
Havertown;Food & Drink;Cafes;Coffee corner QA;N/A;+1 (202) 433-2555;N/A
Garnet Valley;Food & Drink;Cafes;Coffee Station;http://www.coffeestationpa.com;+1 (610) 485-1994;N/A
Morton;Food & Drink;Cafes;Coffee Station;http://www.coffeestationpa.com;+1 (610) 328-1816;N/A
Chadds Ford;Food & Drink;Cafes;Concord Bagel N Deli Cafe;https://concordbagel.com;+1 (484) 841-6538;N/A
Upper Chichester;Food & Drink;Cafes;Copley's Cafe & Tavern;https://www.facebook.com/CopleysTavern/;+1 (610) 859-9222;N/A
Trainer;Food & Drink;Cafes;COTO Cafe;http://www.churchoftheovercomer.net;+1 (610) 485-6090;N/A
Wayne;Food & Drink;Cafes;CrossPoint Cafe;https://www.nexdine.com/cpvf;+1 (610) 688-3151;N/A
Media;Food & Drink;Cafes;Custom Bagels;https://www.facebook.com/custombagels/;+1 (610) 891-6761;N/A
Darby;Food & Drink;Cafes;D'Cafe;N/A;+1 (267) 418-8036;N/A
Broomall;Food & Drink;Cafes;Dunkin';https://locations.dunkindonuts.com/en/pa/broomall/2500-west-chester-pike/357086;+1 (484) 424-9450;N/A
Ardmore;Food & Drink;Cafes;Dunkin';https://locations.dunkindonuts.com/en/pa/ardmore/12-greenfield-ave/353710;+1 (610) 649-3684;N/A
Aston;Food & Drink;Cafes;Dunkin';https://locations.dunkindonuts.com/en/pa/aston/464a-conchester-highway/362891;+1 (610) 800-4681;N/A
Brookhaven;Food & Drink;Cafes;Dunkin';https://locations.dunkindonuts.com/en/pa/brookhaven/4580-edgmont-ave/358602;+1 (484) 480-4505;N/A
Bryn Mawr;Food & Drink;Cafes;Dunkin';https://locations.dunkindonuts.com/en/pa/bryn-mawr/596-w-lancaster-ave/351049;+1 (610) 519-1380;N/A
Collingdale;Food & Drink;Cafes;Dunkin';https://locations.dunkindonuts.com/en/pa/collingdale/5-macdade-blvd/304669;+1 (610) 583-1600;N/A
Folcroft;Food & Drink;Cafes;Dunkin';https://locations.dunkindonuts.com/en/pa/folcroft/1876-delmar-dr/356098;+1 (484) 540-3154;N/A
Folsom;Food & Drink;Cafes;Dunkin';https://locations.dunkindonuts.com/en/pa/folsom/1601-macdade-blvd/310005;+1 (610) 534-4184;N/A
Garnet Valley;Food & Drink;Cafes;Dunkin';https://locations.dunkindonuts.com/en/pa/garnet-valley/1406-naamans-creek-rd/354426;+1 (484) 816-2760;N/A
Glen Mills;Food & Drink;Cafes;Dunkin';https://locations.dunkindonuts.com/en/pa/glen-mills/364-wilmington-west-chester-pike/363508;+1 (610) 459-3319;N/A
Glen Mills;Food & Drink;Cafes;Dunkin';https://locations.dunkindonuts.com/en/pa/glen-mills/485-baltimore-pike/353105;+1 (610) 558-3140;N/A
Glenolden;Food & Drink;Cafes;Dunkin';https://locations.dunkindonuts.com/en/pa/glenolden/146-n.-macdade-blvd/338570;+1 (610) 586-9711;N/A
Green Ridge;Food & Drink;Cafes;Dunkin';https://locations.dunkindonuts.com/en/pa/media/5101-pennell-rd/338291;+1 (610) 485-3855;N/A
Havertown;Food & Drink;Cafes;Dunkin';https://locations.dunkindonuts.com/en/pa/havertown/2804-township-line-rd/343387;+1 (610) 853-3040;N/A
Havertown;Food & Drink;Cafes;Dunkin';https://locations.dunkindonuts.com/en/pa/havertown/901-w-chester-pike/300552;+1 (610) 449-3500;N/A
Lansdowne;Food & Drink;Cafes;Dunkin';https://locations.dunkindonuts.com/en/pa/lansdowne/23-e-baltimore-ave/343832;+1 (610) 626-9203;N/A
Marcus Hook;Food & Drink;Cafes;Dunkin';https://locations.dunkindonuts.com/en/pa/boothwyn/608-conchester-hwy/310169;+1 (610) 485-3318;N/A
Media;Food & Drink;Cafes;Dunkin';https://locations.dunkindonuts.com/en/pa/media/1165-w.-baltimore-pike/302522;+1 (484) 841-4570;N/A
Media;Food & Drink;Cafes;Dunkin';https://locations.dunkindonuts.com/en/pa/media/400-e.-baltimore-pike/301785;+1 (484) 842-0075;N/A
Norwood;Food & Drink;Cafes;Dunkin';https://locations.dunkindonuts.com/en/pa/norwood/600-chester-pike/300810;+1 (610) 532-6547;N/A
Parkside;Food & Drink;Cafes;Dunkin';https://locations.dunkindonuts.com/en/pa/brookhaven/2705-edgmont-ave/300450;+1 (610) 447-1214;N/A
Prospect Park;Food & Drink;Cafes;Dunkin';https://locations.dunkindonuts.com/en/pa/prospect-park/921-lincoln-ave/304374;+1 (610) 583-8772;N/A
Sharon Hill;Food & Drink;Cafes;Dunkin';https://locations.dunkindonuts.com/en/pa/sharon-hill/1100-chester-pike/337063;+1 (610) 532-8610;N/A
Springfield;Food & Drink;Cafes;Dunkin';https://locations.dunkindonuts.com/en/pa/springfield/100-baltimore-pike/300581;+1 (610) 544-1581;N/A
Springfield;Food & Drink;Cafes;Dunkin';https://locations.dunkindonuts.com/en/pa/springfield/1158-baltimore-pike/344416;+1 (610) 543-1352;N/A
Springfield;Food & Drink;Cafes;Dunkin';https://locations.dunkindonuts.com/en/pa/springfield/819-w.sproul-rd/345525;+1 (484) 301-0050;N/A
Swarthmore;Food & Drink;Cafes;Dunkin';https://locations.dunkindonuts.com/en/pa/swarthmore/1-s-chester-rd/343037;+1 (484) 472-8891;N/A
Upper Chichester;Food & Drink;Cafes;Dunkin';https://locations.dunkindonuts.com/en/pa/boothwyn/2343-chichester-ave/347667;+1 (484) 480-2475;N/A
Upper Chichester;Food & Drink;Cafes;Dunkin';https://locations.dunkindonuts.com/en/pa/linwood/2450-market-st/350295;+1 (484) 482-6472;N/A
Wayne;Food & Drink;Cafes;Dunkin';https://locations.dunkindonuts.com/en/pa/wayne/110-e-lancaster-ave/351048;+1 (484) 580-6264;N/A
Woodlyn;Food & Drink;Cafes;Dunkin';https://locations.dunkindonuts.com/en/pa/woodlyn/1300-macdade-blvd/304475;+1 (610) 833-1302;N/A
Wayne;Food & Drink;Cafes;Elegance;http://www.elegancecafe.com;+1 (610) 687-5454;N/A
Norwood;Food & Drink;Cafes;Elixr Coffee Roasters;https://elixrcoffee.com;N/A;N/A
Havertown;Food & Drink;Cafes;Espresso;http://www.espresso345.com;+1 (484) 668-0255;N/A
Wayne;Food & Drink;Cafes;Federal Donuts & Chicken;https://www.federaldonuts.com;+1 (484) 580-2929;N/A
Media;Food & Drink;Cafes;Fellini Cafe of Media;http://www.felliniscafe.com;+1 (610) 892-7616;N/A
Springfield;Food & Drink;Cafes;First Watch;https://www.firstwatch.com/locations/springfield;+1 (484) 573-2773;N/A
Villanova;Food & Drink;Cafes;First Watch;https://www.firstwatch.com/locations/villanova/;+1 (610) 527-3447;N/A
Wayne;Food & Drink;Cafes;First Watch;https://www.firstwatch.com/locations/wayne/;+1 (610) 686-3800;N/A
Essington;Food & Drink;Cafes;Flashbacks;https://www.facebook.com/Flashbacks-Bar-Grille-342804896552929/;+1 (610) 521-9007;N/A
Wallingford;Food & Drink;Cafes;Fond BYOB;https://www.fondbyob.com;+1 (484) 445-2108;N/A
Ardmore;Food & Drink;Cafes;G Town Beer & Cafe;N/A;N/A;N/A
Wayne;Food & Drink;Cafes;Giving Bean Coffee and Tea Fundraising;http://www.givingbean.com;+1 (610) 410-8965;N/A
Haverford;Food & Drink;Cafes;Green Engine Coffee Co.;http://www.greenenginecoffee.com;+1 (484) 416-6164;N/A
Wayne;Food & Drink;Cafes;Gryphon Cafe;https://gryphoncoffee.com/wayne;+1 (610) 688-1988;N/A
Holmes;Food & Drink;Cafes;Haggerty's Cafe;https://www.facebook.com/haggertyscafe;+1 (610) 461-9534;N/A
Drexel Hill;Food & Drink;Cafes;Hibernian Coffee Shop;https://www.bizapedia.com/pa/hibernia-deli-coffee-shop-llc.html;+1 (610) 626-7370;N/A
Swarthmore;Food & Drink;Cafes;Hobbs.;http://www.hobbscoffee.com;+1 (610) 541-0122;N/A
Bryn Mawr;Food & Drink;Cafes;Hope's Cookies;http://www.hopescookies.com;+1 (610) 527-4488;N/A
Havertown;Food & Drink;Cafes;House Cup Cafe;https://housecupcoffee.com;+1 (484) 424-9330;N/A
Havertown;Food & Drink;Cafes;House Cup Coffee Roasters;https://www.housecupcoffee.com;+1 (484) 424-9330;N/A
Lansdowne;Food & Drink;Cafes;Jamey's House of Music;https://www.jameyshouseofmusic.com;+1 (215) 477-9985;N/A
Wayne;Food & Drink;Cafes;JJ Cafe;N/A;+1 (610) 405-8929;N/A
Chadds Ford;Food & Drink;Cafes;JunXion Cafe & Market;N/A;+1 (610) 228-0405;N/A
Havertown;Food & Drink;Cafes;Kettle;https://thekettlehavertown.com;+1 (610) 446-1234;N/A
Aston;Food & Drink;Cafes;Knights Café;https://neumann.sodexomyway.com/dining-near-me/knightscafe;+1 (610) 361-5414;N/A
Havertown;Food & Drink;Cafes;Koffmeyer's Old Fashioned Cookies & Ice Cream;http://www.koffmeyerscookies.com/;+1 (484) 454-3526;N/A
Havertown;Food & Drink;Cafes;Krispy Kreme;https://site.krispykreme.com/pa/havertown/1305-w-chester-pike;+1 (484) 453-8075;N/A
Ardmore;Food & Drink;Cafes;Kung Fu Tea;https://www.kungfutea.com;+1 (610) 222-5888;N/A
Media;Food & Drink;Cafes;Kung Fu Tea;https://www.kungfutea.com;+1 (484) 445-2126;N/A
Bryn Mawr;Food & Drink;Cafes;La Colombe Coffee Roasters;http://lacolombe.com;+1 (215) 398-3091;N/A
Lansdowne;Food & Drink;Cafes;Leo's Breakfast & Lunch;https://www.facebook.com/profile.php?id=100093237615682;+1 (484) 466-2071;N/A
Ardmore;Food & Drink;Cafes;Lu & Aug's;https://www.luandaugs.com;N/A;N/A
Wayne;Food & Drink;Cafes;Mad Anthony Wayne Cafe Coffee & Gelato;https://madanthonywaynecafe.com;+1 (484) 367-7249;N/A
Ardmore;Food & Drink;Cafes;maman;https://mamannyc.com/locations/ardmore;+1 (484) 416-3295;N/A
Chadds Ford;Food & Drink;Cafes;Margie’s Cuisine;https://www.margiescuisinellc.com;+1 (610) 228-0405;N/A
Clifton Heights;Food & Drink;Cafes;Mary's Cafe;http://marys-cafe-clifton-heights.edan.io;+1 (610) 622-0306;N/A
Wayne;Food & Drink;Cafes;Matines Cafe;https://www.matinescafe.com;+1 (484) 580-2982;N/A
Essington;Food & Drink;Cafes;Millers Luncheonette;https://millers-luncheonette.mapssite.site;+1 (610) 521-4740;N/A
Drexel Hill;Food & Drink;Cafes;Ming's Coffee & Tea;http://mings-coffee-tea.edan.io/;+1 (610) 622-6522;N/A
Ardmore;Food & Drink;Cafes;Mr. Korea;N/A;+1 (610) 642-3183;N/A
Media;Food & Drink;Cafes;Nolan's Pour House Coffee Co.;https://nolanspourhouse.com/;N/A;N/A
Media;Food & Drink;Cafes;Ocean City Coffee Company;https://www.oceancitycoffee.com;+1 (610) 744-1870;N/A
Chadds Ford;Food & Drink;Cafes;Oso Sweet Bakery Cafe;http://ososweet.shop;+1 (610) 880-8118;N/A
Broomall;Food & Drink;Cafes;Panera Bread;https://www.panerabread.com/en-us/cafe/locations/pa/broomall/1991-sproul-road;+1 (610) 325-5340;N/A
Havertown;Food & Drink;Cafes;Panera Bread;https://www.panerabread.com/en-us/cafe/locations/pa/havertown/116-township-line-road;+1 (610) 446-1041;N/A
Media;Food & Drink;Cafes;Panera Bread;https://www.panerabread.com/en-us/cafe/locations/pa/media/1075-w-baltimore-pike;+1 (610) 892-3753;N/A
Springfield;Food & Drink;Cafes;Panera Bread;https://www.panerabread.com/en-us/cafe/locations/pa/springfield/1022-baltimore-pike;+1 (610) 690-2450;N/A
Wayne;Food & Drink;Cafes;Panera Bread;https://www.panerabread.com/en-us/cafe/locations/pa/wayne/267-e-swedesford-road;+1 (610) 688-4978;N/A
Chester;Food & Drink;Cafes;Penn Cafe;N/A;+1 (484) 357-1013;N/A
Havertown;Food & Drink;Cafes;Piccolo Joe Coffee Bar;http://www.piccolojoecoffee.com;+1 (610) 449-3590;N/A
Eddystone;Food & Drink;Cafes;Portobello Cafe;https://portobellocafe-restaurant.com;+1 (484) 816-0574;N/A
Glen Mills;Food & Drink;Cafes;PureBread Deli;https://purebreaddeli.com/glen-mills-pennsylvania/;+1 (610) 358-9866;N/A
Media;Food & Drink;Cafes;Rivalry Cafe;https://www.rivalrycafe.com;+1 (484) 442-8245;N/A
Villanova;Food & Drink;Cafes;Rosie's Mug;N/A;+1 (610) 525-2450;N/A
Villanova;Food & Drink;Cafes;Rosie’s Coffee;https://www.rosies.coffee;+1 (267) 253-1249;N/A
Ardmore;Food & Drink;Cafes;Saxbys;http://www.saxbyscoffee.com;N/A;N/A
Clifton Heights;Food & Drink;Cafes;Serenity Soul and Sea Cafe;http://www.serenitysscafe.com;+1 (484) 544-8000;N/A
Eddystone;Food & Drink;Cafes;Spada's Cafe;http://spadas-cafe.edan.io;+1 (610) 874-3966;N/A
Sharon Hill;Food & Drink;Cafes;Sparky's Cafe;http://philadelphia.citysearch.com/listings/darby-township/restaurants/132517_1722;+1 (610) 583-9194;N/A
Springfield;Food & Drink;Cafes;Springfield Pasta Co;http://www.springfieldpasta.com/;+1 (610) 543-5687;N/A
Ardmore;Food & Drink;Cafes;Starbucks;https://www.starbucks.com/store-locator/store/12263/;+1 (610) 896-7880;N/A
Brookhaven;Food & Drink;Cafes;Starbucks;https://www.starbucks.com/store-locator/store/1008849/;+1 (267) 280-7966;N/A
Broomall;Food & Drink;Cafes;Starbucks;https://www.starbucks.com/store-locator/store/1016769;+1 (610) 355-0321;N/A
Broomall;Food & Drink;Cafes;Starbucks;https://www.starbucks.com/store-locator/store/11638/;+1 (610) 325-9495;N/A
Bryn Mawr;Food & Drink;Cafes;Starbucks;https://www.starbucks.com/store-locator/store/13560/;+1 (610) 526-0650;N/A
Chester;Food & Drink;Cafes;Starbucks;https://www.starbucks.com/store-locator;+1 (610) 499-4626;N/A
Glen Mills;Food & Drink;Cafes;Starbucks;https://www.starbucks.com/store-locator/store/27778-248690/brandywine-mills-1751-wilmington-pike-glen-mills-pa-193424301-us;+1 (215) 578-2887;N/A
Glen Mills;Food & Drink;Cafes;Starbucks;https://www.starbucks.com/store-locator/store/6541;+1 (610) 808-9054;N/A
Haverford;Food & Drink;Cafes;Starbucks;https://www.starbucks.com/store-locator/store/1040187/haverford-551-w-lancaster-ave-haverford-pa-19041-us;+1 (610) 484-5299;N/A
Havertown;Food & Drink;Cafes;Starbucks;https://www.starbucks.com/store-locator/store/116456;+1 (610) 449-1161;N/A
Havertown;Food & Drink;Cafes;Starbucks;https://www.starbucks.com/store-locator/store/13564/;+1 (610) 853-3320;N/A
Media;Food & Drink;Cafes;Starbucks;https://www.starbucks.com/store-locator/store/1023501;+1 (610) 627-9092;N/A
Media;Food & Drink;Cafes;Starbucks;https://www.starbucks.com/store-locator/store/1023501/media-baltimore-pike-501-east-baltimore-pike-media-pa-19063-us;+1 (610) 627-9092;N/A
Springfield;Food & Drink;Cafes;Starbucks;https://www.starbucks.com/store-locator/store/1024660;+1 (610) 338-0530;N/A
Springfield;Food & Drink;Cafes;Starbucks;https://www.starbucks.com/store-locator/store/10926;+1 (484) 470-2320;N/A
Springfield;Food & Drink;Cafes;Starbucks;https://www.starbucks.com/store-locator/store/16104/;+1 (610) 544-9545;N/A
Villanova;Food & Drink;Cafes;Starbucks;https://www.starbucks.com/store-locator/store/1008806/;+1 (215) 909-0084;N/A
Wayne;Food & Drink;Cafes;Starbucks;https://www.starbucks.com;+1 (610) 975-8940;N/A
Wayne;Food & Drink;Cafes;Starbucks;https://www.starbucks.com/store-locator/store/1023406;+1 (610) 263-4744;N/A
Wayne;Food & Drink;Cafes;Starbucks - Gateway Shopping Center;https://www.starbucks.com/store-locator/store/1005715/;+1 (610) 688-2936;N/A
Aston;Food & Drink;Cafes;Taste Budz Cafe;N/A;+1 (610) 494-8062;N/A
Wayne;Food & Drink;Cafes;Teresa's Cafe;http://www.teresas-cafe.com;+1 (610) 293-9909;N/A
Media;Food & Drink;Cafes;The 320 Market Cafe;http://the320marketcafe.com/;+1 (610) 565-8320;N/A
Swarthmore;Food & Drink;Cafes;The 320 Market Café;https://www.the320marketcafe.com;+1 (610) 328-7211;N/A
Bryn Mawr;Food & Drink;Cafes;The Bakery House;http://www.thebakeryhouse.net/;+1 (610) 525-4139;N/A
Havertown;Food & Drink;Cafes;The Bookery Coffeehouse;https://www.plantrootslocal.com/thebookery;+1 (484) 455-7694;N/A
Ridley Park;Food & Drink;Cafes;The BrickHaus;https://www.cafebrickhaus.com;+1 (610) 537-7351;N/A
Chesterbrook;Food & Drink;Cafes;The Coffee Shop;https://s784026803.websitebuilder.online/;N/A;N/A
Media;Food & Drink;Cafes;The Corner;https://www.thecornermedia.com;+1 (610) 566-1558;N/A
Ardmore;Food & Drink;Cafes;The Head Nut;https://www.theheadnut.com;+1 (610) 642-3066;N/A
Glen Mills;Food & Drink;Cafes;The Honey Baked Ham Company;https://www.honeybaked.com/;+1 (610) 358-3200;N/A
Wayne;Food & Drink;Cafes;The Station Cafe;N/A;+1 (610) 687-5084;N/A
Wayne;Food & Drink;Cafes;The Vanilla Bean Custom Ice Cream & Coffee shop;https://thevanillabeanofwayne.com;N/A;N/A
Haverford;Food & Drink;Cafes;Tous Les Jours;http://tljus.com;+1 (484) 416-3133;N/A
Wayne;Food & Drink;Cafes;Tous Les Jours;http://tljus.com;+1 (484) 580-8071;N/A
Aston;Food & Drink;Cafes;Towne & Country Cafe;http://towne-country-cafe.edan.io;+1 (610) 459-9585;N/A
Brookhaven;Food & Drink;Cafes;Tropical Smoothie Cafe;https://locations.tropicalsmoothiecafe.com/pa/brookhaven/5003-edgmont-ave.;+1 (484) 487-3114;N/A
Media;Food & Drink;Cafes;Tropical Smoothie Cafe;https://locations.tropicalsmoothiecafe.com/pa/media/1087-west-baltimore-pike;+1 (484) 445-4016;N/A
Wayne;Food & Drink;Cafes;Tropical Smoothie Cafe;https://locations.tropicalsmoothiecafe.com/pa/wayne/251-east-swedesford-road;+1 (717) 918-3483;N/A
Aston;Food & Drink;Cafes;Twelve @ RAB;https://neumann.sodexomyway.com/dining-near-me/wps;+1 (610) 558-4400;N/A
Glen Mills;Food & Drink;Cafes;WFM Coffee Bar;http://www.wholefoodsmarket.com/stores/glenmills;+1 (610) 358-1133;N/A
Media;Food & Drink;Cafes;Willows Garden Cafe;https://www.willowsgardencafe.com;+1 (484) 444-2424;N/A
Media;Food & Drink;Cafes;YO! Coffee Drive Thru;https://www.yocoffeedrivethru.com;+1 (484) 424-7794;N/A
Prospect Park;Food & Drink;Cafes;Yum Cha Bubble Tea;https://yumchabt.com;+1 (610) 288-3596;N/A
Clifton Heights;Food & Drink;Cafes;Yummy 2;http://www.yummytwo.com;+1 (610) 622-2022;N/A
Ardmore;Activities;Libraries;Ardmore Library;http://www.lmls.org;+1 (610) 642-5187;N/A
Green Ridge;Activities;Libraries;Aston Public Library;http://www.astonlibrary.org;+1 (610) 494-5877;N/A
Bryn Mawr;Activities;Libraries;Charles H. Trout Library;https://harcum.libguides.com/troutlibrary;+1 (610) 526-6085;N/A
Collingdale;Activities;Libraries;Collingdale Public Library;http://www.delcolibraries.org;+1 (610) 583-2214;N/A
Darby;Activities;Libraries;Darby Free Library;http://darbylibrary.org/;+1 (610) 586-7310;N/A
Glenolden;Activities;Libraries;Darby Township Library;N/A;+1 (484) 494-5013;N/A
Media;Activities;Libraries;Delaware County Library System;http://www.delcolibraries.org;+1 (610) 891-8622;N/A
Folcroft;Activities;Libraries;Folcroft Public Library;http://www.folcroftlibrary.org;+1 (610) 586-1690;N/A
Glenolden;Activities;Libraries;Glenolden Library;N/A;+1 (610) 583-1010;N/A
Havertown;Activities;Libraries;Haverford Township Free Library;http://www.haverfordlibrary.org;+1 (610) 446-3082;N/A
Wallingford;Activities;Libraries;Helen Kate Furness Free Library;http://www.hkflibrary.org/;+1 (610) 566-9331;N/A
Villanova;Activities;Libraries;Holy Grounds - Falvey Memorial Library;N/A;+1 (610) 519-4170;N/A
Chester;Activities;Libraries;J. Lewis Crozer Library;N/A;+1 (610) 494-3454;N/A
Broomall;Activities;Libraries;Kaplan Career Institute Library;N/A;N/A;N/A
Lansdowne;Activities;Libraries;Lansdowne Public Library;https://www.lansdownelibrary.org;+1 (610) 623-0239;N/A
Bryn Mawr;Activities;Libraries;Ludington Library;https://www.facebook.com/LudingtonLibrary/;+1 (610) 525-1776;N/A
Bryn Mawr;Activities;Libraries;Main Line Health System - Bryn Mawr Hospital - Library;https://www.mainlinehealth.org/locations/bryn-mawr-hospital;+1 (484) 337-3000;N/A
Broomall;Activities;Libraries;Marple Library;http://www.marplelibrary.org;+1 (610) 356-1510;N/A
Marcus Hook;Activities;Libraries;Mary M. Campbell Library;http://www.delcolibraries.org/;+1 (610) 485-6519;N/A
Wayne;Activities;Libraries;May H. Baker Memorial Library;N/A;+1 (610) 989-1364;N/A
Media;Activities;Libraries;Media-Upper Providence Free Library;http://mediauplibrary.org;+1 (610) 566-1918;N/A
Media;Activities;Libraries;Middletown Free Library;https://www.middletownfreelibrary.org/;+1 (610) 566-7828;N/A
Norwood;Activities;Libraries;Norwood Public Library;http://nplibrary.com;+1 (610) 532-8785;N/A
Secane;Activities;Libraries;Primos Branch Library;http://www.udlibraries.org/;+1 (610) 622-8091;N/A
Prospect Park;Activities;Libraries;Prospect Park Free Library;N/A;+1 (610) 532-4643;N/A
Glen Mills;Activities;Libraries;Rachel Kohl Community Library;http://www.kohllibrary.org/;+1 (610) 358-3445;N/A
Wayne;Activities;Libraries;Radnor Memorial Library;http://www.radnorlibrary.org/;+1 (610) 687-1124;N/A
Ridley Park;Activities;Libraries;Ridley Park Public Library;https://ridleylibrary.org/;+1 (610) 583-7207;N/A
Folsom;Activities;Libraries;Ridley Township Public Library;https://ridleylibrary.org/;+1 (610) 583-0593;N/A
Sharon Hill;Activities;Libraries;Sharon Hill Public Library;https://www.sharonhillpubliclibrary.org/;+1 (610) 586-3993;N/A
Springfield;Activities;Libraries;Springfield Township Library;https://springfieldtwplib.com;+1 (610) 543-2113;N/A
Swarthmore;Activities;Libraries;Swarthmore Public Library;https://www.swarthmorepubliclibrary.org/;+1 (610) 543-0436;N/A
Essington;Activities;Libraries;Tinicum Memorial Public Library;https://tinicumlibrary.org;+1 (610) 521-9344;N/A
Wayne;Activities;Libraries;Tredyffrin Public Library;http://tredyffrinlibraries.org;+1 (610) 688-7092;N/A
Upper Chichester;Activities;Libraries;Upper Chichester Library;http://upperchichesterlibrary.org/;+1 (610) 485-0200;N/A
Bryn Mawr;Activities;Libraries;Vane B. Lucas Library;N/A;+1 (610) 526-1337;N/A
Yeadon;Activities;Libraries;Yeadon Public Library;https://yeadonlibrary.org/;+1 (610) 623-4090;N/A
Brookhaven;Food & Drink;Pizza Shops;Abruzzi Pizza;https://www.abruzzipizzabrookhaven.com/;+1 (610) 874-9220;N/A
Darby;Food & Drink;Pizza Shops;Al Forno Pizzeria;https://www.facebook.com/Alfornopizzeriadarby;+1 (484) 540-9928;N/A
Ridley Park;Food & Drink;Pizza Shops;Aldo & Manny's Pizza and Pasta;http://aldoandmanny.com;+1 (610) 237-8533;N/A
Broomall;Food & Drink;Pizza Shops;Alfredo's Pizza;N/A;+1 (610) 355-9424;N/A
Glenolden;Food & Drink;Pizza Shops;All Town Pizza;https://www.facebook.com/alltownpizza/;+1 (610) 532-8000;N/A
Folsom;Food & Drink;Pizza Shops;Apetidos Pizza;https://www.apetidospizza.com;+1 (610) 586-6060;N/A
Collingdale;Food & Drink;Pizza Shops;Arion Pizza;https://www.arionpizza.com;+1 (610) 522-2213;N/A
Springfield;Food & Drink;Pizza Shops;Bellaroma Pizza Kitchen;https://bellaromaspringfield.com;+1 (610) 541-0900;N/A
Clifton Heights;Food & Drink;Pizza Shops;Best Quality Pizza & Grill;http://bestqualitypizza.com;+1 (610) 623-4500;N/A
Glen Mills;Food & Drink;Pizza Shops;Bravo Pizza;http://www.bravopizzany.com;+1 (610) 558-6200;N/A
Drexel Hill;Food & Drink;Pizza Shops;Brothers Pizza & Restaurant;https://www.facebook.com/brotherspizzadh/;+1 (610) 622-2662;N/A
Drexel Hill;Food & Drink;Pizza Shops;Burmont Pizza and Grill;https://www.burmontpizzaandgrill.com/;+1 (610) 259-4144;N/A
Wayne;Food & Drink;Pizza Shops;Carla's Pizzeria;http://www.carlaspizzeria.com;+1 (610) 688-1150;N/A
Chester;Food & Drink;Pizza Shops;Chester Pizzeria;http://chester-pizzeria.paqe.io;+1 (610) 876-7222;N/A
Marcus Hook;Food & Drink;Pizza Shops;Chicken Hot & Pizza;https://www.facebook.com/ChickenHotandPizza/;+1 (610) 497-0100;N/A
Aston;Food & Drink;Pizza Shops;Cocco's Pizza;http://www.coccosaston.com;+1 (610) 494-4797;N/A
Norwood;Food & Drink;Pizza Shops;Cocco's Pizza;https://coccospizza.com/norwood-pa/;+1 (610) 461-5850;N/A
Drexel Hill;Food & Drink;Pizza Shops;Cocco's Pizza Drexel Hill;http://www.coccosdrexelhill.com;+1 (610) 284-0474;N/A
Glen Mills;Food & Drink;Pizza Shops;Concord Pizza;https://www.facebook.com/Concord-Pizza-117461018271755/;+1 (610) 361-0600;N/A
Boothwyn;Food & Drink;Pizza Shops;Corner Pizza;http://www.cornerpizza.net;+1 (610) 364-4008;N/A
Prospect Park;Food & Drink;Pizza Shops;Cornerstone Pizza;http://www.cornerstonepizza.com;+1 (610) 586-7280;N/A
Havertown;Food & Drink;Pizza Shops;Crust Pizzeria;https://www.crusthavertown.com;+1 (610) 449-5500;N/A
Prospect Park;Food & Drink;Pizza Shops;Dante's Pizza;N/A;+1 (610) 237-6700;N/A
Chadds Ford;Food & Drink;Pizza Shops;Double Decker Pizza;https://doubledeckerpizza.com/locations/chadds-ford/;+1 (610) 459-4090;N/A
Ridley Park;Food & Drink;Pizza Shops;Double Decker Pizza;https://doubledeckerpizza.com/locations/ridley/;+1 (610) 521-4275;N/A
Folsom;Food & Drink;Pizza Shops;Emilio's Pizza;https://www.facebook.com/Emilios-Pizza-166638143407431/;+1 (610) 586-2212;N/A
Newtown Square;Food & Drink;Pizza Shops;Euro Pizza;http://www.europizzanewtownsquare.com;+1 (610) 359-8899;N/A
Chadds Ford;Food & Drink;Pizza Shops;Fabio's Pizza;https://fabiospizzapa.com;+1 (610) 558-2569;N/A
Essington;Food & Drink;Pizza Shops;Family Style Pizza 2;http://www.familystylepizza2.com;+1 (610) 915-3397;N/A
Brookhaven;Food & Drink;Pizza Shops;Femi's Pizza Party - Brookhaven;https://www.facebook.com/Pizza-Party-Brookhaven-336035094168/?ref=page_internal;+1 (610) 872-1010;N/A
Woodlyn;Food & Drink;Pizza Shops;Fresca Pizza and Beer;N/A;+1 (610) 874-8000;N/A
Newtown Square;Food & Drink;Pizza Shops;Fresco Pizza Grill;http://www.frescopizzagrill.com/;+1 (610) 356-4171;N/A
Upland;Food & Drink;Pizza Shops;G & G Pizza;http://gandppizzeriachester5.gastrobars.com;+1 (610) 874-7999;N/A
Garnet Valley;Food & Drink;Pizza Shops;Garnet Valley Pizza;https://garnetvalleypizza.com;+1 (484) 841-6070;N/A
Glenolden;Food & Drink;Pizza Shops;Genoa Pizza & Grill;http://www.genoapizzagrill.com;+1 (610) 532-9999;N/A
Brookhaven;Food & Drink;Pizza Shops;Gino Pizza;https://ginopizzamenu.com;+1 (610) 619-6999;N/A
Havertown;Food & Drink;Pizza Shops;Havertown Pizza;http://havertownpizza.com/;+1 (610) 446-5035;N/A
Springfield;Food & Drink;Pizza Shops;Hunnypie Smallbatch Pizza Pies;http://hunnypie.com;+1 (610) 990-6990;N/A
Prospect Park;Food & Drink;Pizza Shops;Italiana's Pizza;https://www.pizzashopprospectparkpa.com;+1 (610) 583-2272;N/A
Broomall;Food & Drink;Pizza Shops;Joe's Pizza And Restaurant;https://www.facebook.com/JoesPizzaBroomall/;+1 (610) 356-9848;N/A
Prospect Park;Food & Drink;Pizza Shops;Johnny's New York Style Pizza;https://www.johnnyspizzapa.com/;+1 (610) 461-8600;N/A
Bryn Mawr;Food & Drink;Pizza Shops;Johnny’s Pizza;http://www.johnnyspizzabrynmawr.com;+1 (610) 525-4811;N/A
Upper Darby;Food & Drink;Pizza Shops;Keystone Pizza;http://keystonepizza.com;+1 (610) 734-1206;N/A
Chadds Ford;Food & Drink;Pizza Shops;La Mia Pizzeria;http://www.lamia.pizza;+1 (484) 770-8589;N/A
Upper Darby;Food & Drink;Pizza Shops;Lagos Island Pizza & Grille- Upper Darby;https://lagosislandgrille.com;+1 (610) 352-0850;N/A
Upper Darby;Food & Drink;Pizza Shops;Leandro's Pizza House;http://www.ginospizza.com;+1 (610) 734-1226;N/A
Linwood;Food & Drink;Pizza Shops;Linwood Pizza;https://www.linwoodpizza.net/Welcome.tpl?action=nc&from=Top95;+1 (610) 485-4900;N/A
Darby;Food & Drink;Pizza Shops;Main Street Pizza;http://mainstreetpizzadarbypa.com;+1 (610) 583-1117;N/A
Aston;Food & Drink;Pizza Shops;Marco's Pizzeria & Grill;https://www.facebook.com/Marcospizzeriagrillaston19014/;+1 (484) 321-8325;N/A
East Lansdowne;Food & Drink;Pizza Shops;Mr Wings Pizza;https://www.mrwingseastlansdowne.com;+1 (610) 623-1314;N/A
Brookhaven;Food & Drink;Pizza Shops;Mr. Wings Pizza & Grill;https://www.facebook.com/Mr-Wings-Pizza-Grill-135562989804008/;+1 (610) 490-0400;N/A
Chester;Food & Drink;Pizza Shops;Nazz's Pizza;https://www.nazzspizza.com/?utm_source=gbp;+1 (610) 569-9602;N/A
Prospect Park;Food & Drink;Pizza Shops;New London Pizza;http://newlondonpizzashop.com;+1 (610) 532-2525;N/A
Upper Darby;Food & Drink;Pizza Shops;New Long Lane Pizza;http://www.idelco.com/new-long-lane-pizza;+1 (610) 352-9880;N/A
Newtown Square;Food & Drink;Pizza Shops;Newtown Square Pizza and Grill;http://www.newtownsquarepizza.com;+1 (610) 353-4234;N/A
Prospect Park;Food & Drink;Pizza Shops;Papa Giovanni La Pizza Sicilia;https://papagiovannilapizzasiciliana.com;+1 (484) 494-6298;N/A
Brookhaven;Food & Drink;Pizza Shops;Papa Johns Pizza;https://locations.papajohns.com/united-states/pa/19015/brookhaven/4580-edgmont-avenue;+1 (484) 483-4712;N/A
Folsom;Food & Drink;Pizza Shops;Papa Johns Pizza;https://locations.papajohns.com/united-states/pa/19033/folsom/245-macdade-blvd;+1 (610) 616-3010;N/A
Lansdowne;Food & Drink;Pizza Shops;Papa Johns Pizza;https://locations.papajohns.com/united-states/pa/19050/lansdowne/7-n-lansdowne-avenue;+1 (610) 622-1200;N/A
Aston;Food & Drink;Pizza Shops;Pappone's Pizzeria;https://papponespizza.com;+1 (610) 492-1090;N/A
Morton;Food & Drink;Pizza Shops;Pappous Pizza Pub;https://www.facebook.com/Thepappouspizzapub/;+1 (610) 544-0142;N/A
Darby;Food & Drink;Pizza Shops;Parkview Pizza & Fried Chicken;N/A;+1 (610) 623-1200;N/A
Drexel Hill;Food & Drink;Pizza Shops;Pat's Pizza;https://drexelhill.patspizzeria.com/ordering/intro;+1 (610) 449-4900;N/A
Brookhaven;Food & Drink;Pizza Shops;Pat's Pizzeria;http://www.patsfamilyrestaurant.com;+1 (610) 876-7777;N/A
Lansdowne;Food & Drink;Pizza Shops;Paul Revere Pizza House;http://www.paulreverepizzahouse.com;+1 (610) 259-9214;N/A
Glenolden;Food & Drink;Pizza Shops;Piazza Napoli Pizza;https://www.piazzanapolipizzagl.com/Welcome.tpl?action=nc&from=Top125;+1 (484) 497-5750;N/A
Brookhaven;Food & Drink;Pizza Shops;Pizza Hut;https://locations.pizzahut.com/pa/brookhaven/4902-edgmont-avenue;+1 (267) 525-6150;N/A
Folsom;Food & Drink;Pizza Shops;Pizza Hut;https://locations.pizzahut.com/pa/folsom/146-morton-avenue;+1 (484) 497-1001;N/A
Glenolden;Food & Drink;Pizza Shops;Pizza Inn;https://www.pizzainn.com/locations/mendenhall-ms/;N/A;N/A
Woodlyn;Food & Drink;Pizza Shops;Pizzaz Pizza;http://www.mypizzazpizza.com/;+1 (610) 447-8555;N/A
Newtown Square;Food & Drink;Pizza Shops;Providence Pizzeria Co.;https://providencepizzeria.com;+1 (610) 325-5200;N/A
Darby;Food & Drink;Pizza Shops;Queen Of Pizza;https://www.queenofpizzadarby.com;+1 (610) 534-1629;N/A
Clifton Heights;Food & Drink;Pizza Shops;Rams Pizza Tavern;N/A;+1 (610) 623-4422;N/A
Essington;Food & Drink;Pizza Shops;Romano's Pizzeria And Italian Restaurant;http://www.romanostromboli.com;+1 (610) 521-9010;N/A
Ardmore;Food & Drink;Pizza Shops;Sam's Brick Oven Pizza Craft Beer & Wine Bar;http://samsbrickovenpizza.com/sams-brick-oven-pizza-ardmore/;+1 (610) 658-2626;N/A
Sharon Hill;Food & Drink;Pizza Shops;Supreme Pizza;https://www.supremepizzasharonhill.com;+1 (610) 522-5220;N/A
Springfield;Food & Drink;Pizza Shops;Thunderbird II Pizza Springfield;http://www.thunderbirdpizza.com;+1 (610) 328-1131;N/A
Folsom;Food & Drink;Pizza Shops;Tower Pizza;http://towerpizzas.com;+1 (484) 497-8484;N/A
Drexel Hill;Food & Drink;Pizza Shops;Township Line Pizza;https://www.tlinepizza.net;+1 (610) 449-5200;N/A
Chester;Food & Drink;Pizza Shops;Uno Pizzeria & Grill;https://restaurants.unos.com/locations/Chester/PA/3512;+1 (484) 480-4788;N/A
Newtown Square;Food & Drink;Pizza Shops;Uno Pizzeria & Grill;https://restaurants.unos.com/locations/Newtown-Square/PA/3510;+1 (610) 353-8667;N/A
Newtown Square;Food & Drink;Pizza Shops;Upper Crust Pizzeria & Restaurant;http://www.uppercrustnewtownsquare.com;+1 (610) 356-2104;N/A
Wayne;Food & Drink;Pizza Shops;Vic and Dean's Pizzeria Grill;https://vicdeanspizzeria.com/;+1 (610) 225-0025;N/A
Lansdowne;Food & Drink;Pizza Shops;Zesty Pizza;https://www.zestypizzapa.com;+1 (610) 259-3789;N/A
Upper Darby;Activities;Recreation;69th Street Recreation Area;N/A;N/A;N/A
Bryn Mawr;Activities;Recreation;Allen & Allen Motor Speedway Racing;http://www.allenallenmotorspeedwayracing.org;+1 (610) 520-7247;N/A
Springfield;Activities;Recreation;AMC Marple 10;https://www.amctheatres.com/movie-theatres/philadelphia/amc-marple-10;+1 (610) 328-5439;N/A
Springfield;Activities;Recreation;Aquaponical;N/A;+1 (267) 306-7433;N/A
Broomall;Activities;Recreation;Art In Motion Dance Studio;http://www.art-in-motiondancestudio.com;+1 (610) 353-5350;N/A
Aston;Activities;Recreation;Aston Township Memorial Gardens;N/A;+1 (610) 494-0384;N/A
Woodlyn;Activities;Recreation;Balignac Park;N/A;N/A;N/A
Ridley Park;Activities;Recreation;Barnstormers Theater;http://www.barnstormerstheater.com;+1 (610) 461-9969;N/A
Glen Mills;Activities;Recreation;Bethel Township Park;http://www.townshipofconcord.com/resident_information/parks___recreation/township_fields.php;+1 (610) 842-2147;N/A
Swarthmore;Activities;Recreation;Blackrock Park Field House;N/A;N/A;N/A
Wayne;Activities;Recreation;Bo Connor park;http://www.radnor.com;+1 (610) 688-5600;N/A
Wayne;Activities;Recreation;Bob White Park;N/A;N/A;N/A
Glen Mills;Activities;Recreation;Bonner Park;N/A;N/A;N/A
Chadds Ford;Activities;Recreation;Brandywine Battlefield Park;http://brandywinebattlefield.org;+1 (610) 459-3342;N/A
Chadds Ford;Activities;Recreation;Brandywine Museum of Art;http://www.brandywinemuseum.org;+1 (610) 388-2700;N/A
Bryn Mawr;Activities;Recreation;Bryn Mawr Film Institute;http://www.brynmawrfilm.org/;+1 (610) 527-9898;N/A
Upland;Activities;Recreation;Caleb Pusey House;http://www.calebpuseyhouse.com;+1 (610) 874-5665;N/A
Upper Darby;Activities;Recreation;Cardington Recreation Area;https://www.udcced.org/parks-and-trails/?doing_wp_cron=1632491604.8585450649261474609375#cardington;N/A;N/A
Aldan;Activities;Recreation;Cathie Collins School of Dance;http://www.cathiecollins.com;+1 (610) 623-6464;N/A
Chadds Ford;Activities;Recreation;Chadds Ford Historical Society;http://www.chaddsfordhistory.org;+1 (610) 388-7376;N/A
Aston;Activities;Recreation;Champ Camp Great Outdoors at Neumann University;https://www.discoverchampions.com/landing-pages/aston-summer-break-002925;+1 (800) 246-2154;N/A
Springfield;Food & Drink;Pizza Shops;Chuck E. Cheese;https://www.chuckecheese.com/springfield-pa;+1 (610) 544-3600;N/A
Garnet Valley;Activities;Recreation;Clayton County Park;https://www.delcopa.gov/departments/parks/clayton.html;+1 (610) 891-4663;N/A
Swarthmore;Activities;Recreation;Clothier Baseball Field;https://swarthmoreathletics.com/facilities/clothier-baseball-field/13;+1 (610) 328-8213;N/A
Swarthmore;Activities;Recreation;Clothier Field;https://swarthmoreathletics.com/facilities/?id=1;+1 (610) 328-8222;N/A
Newtown Square;Activities;Recreation;Colonial Pennsylvania Farmstead;https://www.colonialplantation.org;+1 (610) 566-1725;N/A
Haverford;Activities;Recreation;Community Park at Haverford Reserve;http://www.haverfordtownship.com/Parks_and_Recreation.html;+1 (610) 446-9397;N/A
Green Ridge;Activities;Recreation;Concord Square Park;N/A;N/A;N/A
Glen Mills;Activities;Recreation;Concord Township Dog Park;https://www.townshipofconcord.com/how_do_i/find/dog_park_info.php;+1 (610) 459-8911;N/A
Wayne;Activities;Recreation;Country Gate Drive Park;N/A;N/A;N/A
Wayne;Activities;Recreation;Cowan Park;N/A;+1 (610) 688-5600;N/A
Aston;Activities;Recreation;Dance Obsessions;N/A;+1 (610) 358-1730;N/A
Ardmore;Activities;Recreation;Dancesport Academy;https://dancesportpa.com;+1 (610) 642-2525;N/A
Garnet Valley;Activities;Recreation;Darlington Arts Center;http://www.darlingtonarts.org;+1 (610) 358-3632;N/A
Media;Activities;Recreation;DCHS Museum & Research Library;http://www.padelcohistory.org;+1 (610) 359-0832;N/A
Media;Activities;Recreation;Delaware County Institute of Science;https://www.delcoscience.org;+1 (610) 566-5126;N/A
Lansdowne;Activities;Recreation;Don's Dance World;N/A;+1 (610) 622-6029;N/A
Wayne;Activities;Recreation;Encke Park;https://www.radnor.com/Home/Components/FacilityDirectory/FacilityDirectory/14/33;+1 (610) 688-5600;N/A
Wayne;Activities;Recreation;Fenimore Woods;https://www.radnor.com/Home/Components/FacilityDirectory/FacilityDirectory/16/33;+1 (610) 688-5600;N/A
Chadds Ford;Activities;Recreation;Flint Woods Nature Preserve;N/A;N/A;N/A
Woodlyn;Activities;Recreation;Fred Dohrmann Field;https://widenerpride.com/facilities/fred-dohrmann-field-at-dougherty-gillespie-park/13;N/A;N/A
Wayne;Activities;Recreation;Friends of Radnor Trail Park;https://www.radnor.com/Facilities/Facility/Details/Friends-of-the-Radnor-Trail-Park-12;+1 (610) 688-5600;N/A
Glenolden;Activities;Recreation;Glenolden Park;https://www.glenoldenborough.com;+1 (610) 583-3221;N/A
Wayne;Activities;Recreation;Harford Park;https://www.radnor.com/Home/Components/FacilityDirectory/FacilityDirectory/22/33;+1 (610) 688-5600;N/A
Bryn Mawr;Activities;Recreation;Harriton House;http://www.harritonhouse.org/;+1 (610) 525-0201;N/A
Haverford;Activities;Recreation;Haverford Reserve Dog Park;https://www.facebook.com/HaverfordReserveDogPark/;+1 (610) 446-9397;N/A
Rose Valley;Activities;Recreation;Hedgerow Theatre;https://hedgerowtheatre.org;N/A;N/A
Rose Valley;Activities;Recreation;Hedgerow Theatre Company;http://hedgerowtheatre.org;+1 (610) 565-4211;N/A
Chadds Ford;Activities;Recreation;Hickory Hill Road Park;N/A;N/A;N/A
Prospect Park;Activities;Recreation;Interboro Theater;http://www.interborotheater.com;+1 (610) 237-6410;N/A
Garnet Valley;Activities;Recreation;Jack King Park;N/A;N/A;N/A
Ridley Park;Activities;Recreation;Janice's Dance Works;http://www.janicesdanceworks.com;+1 (610) 534-4828;N/A
Upland;Activities;Recreation;Joan's Dance Studio;https://www.bizapedia.com/pa/joans-dance-studio.html;+1 (610) 872-8700;N/A
Garnet Valley;Activities;Recreation;John T Adkinson Park;N/A;N/A;N/A
Morton;Activities;Recreation;Kathi's Dance Studio;N/A;+1 (610) 604-0805;N/A
Swarthmore;Activities;Recreation;Keystone Park;https://www.swarthmorepa.org/2165/Parks;N/A;N/A
Glen Mills;Activities;Recreation;KICKS Academy Of Dance;http://www.kicksacademyofdance.com;+1 (610) 558-3350;N/A
Sharon Hill;Activities;Recreation;Knights Athletics;https://aphsathletics.org/;N/A;N/A
Havertown;Activities;Recreation;Kristina Pulcini Ballet Academy;https://kpballet.com;+1 (610) 853-0555;N/A
Lansdowne;Activities;Recreation;Lansdowne Theater;http://www.lansdownetheater.org;+1 (610) 622-1234;N/A
Glen Mills;Activities;Recreation;Leopard Run Park;N/A;N/A;N/A
Chester;Activities;Recreation;Leslie C. Quick Jr. Stadium;https://widenerpride.com/sports/2008/8/4/GEN_0804080656.aspx#Quick;+1 (610) 499-4444;N/A
Aston;Activities;Recreation;Lewis H. Fisher Memorial Park;N/A;N/A;N/A
Broomall;Activities;Recreation;Marple Sports Arena;http://www.marplesportsarena.com;+1 (610) 338-0111;N/A
Wayne;Activities;Recreation;McKaig Nature Center;http://www.enjoymckaig.org;+1 (484) 580-9474;N/A
Media;Activities;Recreation;Media Arts Council;http://www.mediaartscouncil.org;+1 (610) 566-6020;N/A
Media;Activities;Recreation;Media Camping Center;N/A;+1 (610) 566-1833;N/A
Folcroft;Activities;Recreation;Montgomery Park;https://www.tidaltrail.org/location/montgomery-park/#.YWQt2C0RqX0;N/A;N/A
Upper Darby;Activities;Recreation;Naylors Run Park;https://www.upperdarby.org;+1 (610) 734-7625;N/A
Haverford;Activities;Recreation;Nelly Berman School of Music;http://www.nbsmusic.com;+1 (610) 896-5105;N/A
Glen Mills;Activities;Recreation;Newlin Grist Mill Park;https://www.facebook.com/newlingristmill/;+1 (610) 459-2359;N/A
Newtown Square;Activities;Recreation;Newtown Square Railroad Museum;https://newtownsquarerailroadmuseum.org;+1 (610) 975-0290;N/A
Green Ridge;Activities;Recreation;North Lamppost Lane Park;N/A;N/A;N/A
Wayne;Activities;Recreation;North Wayne Park;http://www.radnor.com/Facilities/Facility/Details/North-Wayne-Park-18;+1 (610) 688-5600;N/A
Cheyney;Activities;Recreation;O'Shields - Stevenson Stadium;https://cheyneywolves.com;+1 (610) 399-2275;N/A
Upper Darby;Activities;Recreation;Observatory Hill Park;https://www.facebook.com/pages/Observatory-Hills-Park/198082050315587;N/A;N/A
Wayne;Activities;Recreation;Odorisio Park;https://www.radnor.com/Home/Components/FacilityDirectory/FacilityDirectory/38/33;+1 (610) 688-5600;N/A
Havertown;Activities;Recreation;Orlandi Dance Center;http://www.orlandidancecenter.com;+1 (610) 446-3306;N/A
Thornton;Activities;Recreation;Palmer Arboretum;N/A;N/A;N/A
Trainer;Activities;Recreation;Parkview Park;https://tspm.us/parkview-park/;+1 (484) 408-5554;N/A
Media;Activities;Recreation;Pennsylvania Veterans Museum;http://www.paveteransmuseum.org;+1 (610) 566-0788;N/A
Upper Darby;Activities;Recreation;PhoreGround Productions;N/A;+1 (484) 466-2015;N/A
Ardmore;Activities;Recreation;Pivot Ballroom on the Main Line;http://www.pivotonthemainline.com;+1 (610) 909-7718;N/A
Swarthmore;Activities;Recreation;Players Club of Swarthmore;http://www.pcstheater.org;+1 (610) 328-4271;N/A
Aston;Activities;Recreation;Poore Park;N/A;N/A;N/A
Wayne;Activities;Recreation;Radnor Memorial Park;https://www.radnor.com/Home/Components/FacilityDirectory/FacilityDirectory/46/;+1 (610) 688-5600;N/A
Radnor;Activities;Recreation;Radnor Nature Park;N/A;N/A;N/A
Wayne;Activities;Recreation;Radnor Skate Park;https://www.radnor.com/Home/Components/FacilityDirectory/FacilityDirectory/52/33;+1 (610) 688-5600;N/A
Aston;Activities;Recreation;Richards Rock Academy;http://richardsrockacademy.com;+1 (610) 908-5668;N/A
Swarthmore;Activities;Recreation;Ridley Township Municipal Park;N/A;N/A;N/A
Glenolden;Activities;Recreation;Rough Cut band;http://www.roughcutband.com;+1 (856) 952-3934;N/A
Brookhaven;Activities;Recreation;Samson Park;N/A;N/A;N/A
Upper Darby;Activities;Recreation;Second Ward Play Area;N/A;N/A;N/A
Haverford;Activities;Recreation;Sharpe Park & Bird Sanctuary;https://www.lowermerion.org/departments/parks-and-recreation-department/township-parks/sharpe-park-bird-sanctuary;N/A;N/A
Villanova;Activities;Recreation;Skunk Hollow Park;https://www.radnor.com/Home/Components/FacilityDirectory/FacilityDirectory/56/33;+1 (610) 688-5600;N/A
Cheyney;Activities;Recreation;Squire Cheyney Farm Park;N/A;N/A;N/A
Strafford;Activities;Recreation;Strafford Park;https://www.tredyffrin.org/Home/Components/FacilityDirectory/FacilityDirectory/24/292;N/A;N/A
Chester;Activities;Recreation;Subaru Park;http://www.philadelphiaunion.com/stadium;+1 (610) 859-3100;N/A
Swarthmore;Activities;Recreation;Swarthmore Ballet Theatre;http://www.swarthmorepa.org;+1 (610) 544-8228;N/A
Swarthmore;Activities;Recreation;Tarble Pavilion;https://swarthmoreathletics.com/facilities/tarble-pavilion/6;+1 (610) 328-8000;N/A
Swarthmore;Activities;Recreation;Thatcher Park;http://www.swarthmorepa.org/2165/Parks;+1 (610) 543-4599;N/A
Chadds Ford;Activities;Recreation;The Christian C. Sanderson Museum;https://sandersonmuseum.org/;+1 (610) 388-6545;N/A
Media;Activities;Recreation;The Media Theatre;http://www.mediatheatre.org/;+1 (610) 891-0100;N/A
Rose Valley;Activities;Recreation;The Rose Valley Museum & Historical Society;https://rosevalleymuseum.org;+1 (484) 444-2961;N/A
Villanova;Activities;Recreation;The Willows Park;https://www.radnor.com/Home/Components/FacilityDirectory/FacilityDirectory/62/33;+1 (610) 688-5600;N/A
Upper Darby;Activities;Recreation;Theatre 7000;https://www.icmovement.org;+1 (484) 463-8936;N/A
Glen Mills;Activities;Recreation;Thornbury Park;N/A;+1 (610) 399-8383;N/A
Thornton;Activities;Recreation;Thornton Road Park;N/A;+44 333 999 7575;N/A
Upper Darby;Activities;Recreation;Tower Theater;http://www.towertheatre.net;+1 (610) 352-2887;N/A
Glen Mills;Activities;Recreation;Trotter Hill Alpacas;https://trotterhill.com/index.html;+1 (610) 220-9989;N/A
Swarthmore;Activities;Recreation;Umoja Park;N/A;N/A;N/A
Brookhaven;Activities;Recreation;Upland County Park;https://www.delcopa.gov/departments/parks/upland.html;+1 (610) 891-4663;N/A
Drexel Hill;Activities;Recreation;Upper Darby Performing Arts Center;https://www.upperdarbysd.org;+1 (610) 622-7000;N/A
Aston;Activities;Recreation;Valley View Park;N/A;N/A;N/A
Villanova;Activities;Recreation;Villanova Theatre;http://villanovatheatre.org;+1 (610) 519-7474;N/A
Wayne;Activities;Recreation;Warren Filipone Memorial Park;N/A;N/A;N/A
Wayne;Activities;Recreation;Wayne's Woods Picnic Area;https://www.nps.gov/places/waynes-woods-picnic-area.htm?utm_source=place&utm_medium=website&utm_campaign=experience_more&utm_content=large;+1 (518) 885-3639;N/A
Aston;Activities;Recreation;Weir Park;N/A;N/A;N/A
Chesterbrook;Activities;Recreation;Wilson Farm Park;https://www.tredyffrin.org/Home/Components/FacilityDirectory/FacilityDirectory/30/292;+1 (610) 644-1400;N/A
Bryn Mawr;Activities;Recreation;Wolf Performing Arts Center;http://www.wolfperformingartscenter.org;+1 (610) 642-0233;N/A
Wayne;Food & Drink;Restaurants;333 Belrose Bar & Grill;http://www.333belrose.com/;+1 (610) 293-1000;N/A
Wayne;Food & Drink;Restaurants;A Taste Of Britain;https://www.atasteofbritain.com/;+1 (610) 971-0390;N/A
Drexel Hill;Food & Drink;Restaurants;A Whole Snack Store;N/A;N/A;N/A
Collingdale;Food & Drink;Restaurants;AFC Kitchen;N/A;+1 (610) 915-3065;N/A
Chadds Ford;Food & Drink;Restaurants;Agave Mexican Cuisine;http://agavebyo.com;+1 (484) 770-8345;N/A
Havertown;Food & Drink;Restaurants;Al Pastor;https://eatalpastorhavertown.com;+1 (484) 455-4585;N/A
Ridley Park;Food & Drink;Restaurants;Alex’s Shorties;N/A;+1 (484) 497-7423;N/A
Wayne;Food & Drink;Restaurants;Amada;https://www.amadarestaurant.com/amada-radnor/;+1 (484) 429-2158;N/A
Upper Darby;Food & Drink;Restaurants;Anh Hong Pho & Cafe;https://www.facebook.com/phoqndcafeanhhong;+1 (610) 713-9118;N/A
Media;Food & Drink;Restaurants;Anthony's At Paxon;http://www.anthonysatpaxon.com/;+1 (610) 353-0220;N/A
Springfield;Food & Drink;Restaurants;Anthony’s Ristorante;http://www.anthonysatspringfield.com;+1 (610) 623-6900;N/A
Chadds Ford;Food & Drink;Restaurants;Antica Restaurant & Wine Bar;https://www.anticapa.com/;+1 (484) 770-8631;N/A
Swarthmore;Food & Drink;Restaurants;Antonia's Family Restaurant;http://www.antoniasfamilyrestaurant.com/;+1 (610) 543-1271;N/A
Broomall;Food & Drink;Restaurants;Apple Walnut Café;http://applewalnut.com;+1 (610) 353-1384;N/A
Folsom;Food & Drink;Restaurants;Applebee's Grill + Bar;https://restaurants.applebees.com/en-us/pa/folsom/320-macdade-blvd.-97017;+1 (610) 461-7573;N/A
Green Ridge;Food & Drink;Restaurants;Applebee's Grill + Bar;https://restaurants.applebees.com/en-us/pa/aston/4301-pennell-road-76022;+1 (610) 485-3528;N/A
Upper Darby;Food & Drink;Restaurants;Aquarius Restaurant;http://aquariusrestaurant.amlnk.com;+1 (610) 352-4237;N/A
Media;Food & Drink;Restaurants;Ariano;http://www.ariano.net;+1 (610) 892-6944;N/A
Chadds Ford;Food & Drink;Restaurants;Arugula Ristorante Italiano;http://www.arugulachaddsford.com;+1 (610) 358-0888;N/A
Parkside;Food & Drink;Restaurants;Ashabee cuisine;N/A;+1 (610) 338-5808;N/A
Upper Darby;Food & Drink;Restaurants;Asian Express & Sushi;N/A;+1 (610) 352-3333;N/A
Upper Darby;Food & Drink;Restaurants;Asian Family No.1;http://www.asianfamily1.com/index.html;+1 (610) 352-1134;N/A
Aston;Food & Drink;Restaurants;Aston Diner;https://astondiner.com;+1 (610) 494-5656;N/A
Wayne;Food & Drink;Restaurants;Autograph Brasserie;http://www.autographbrasserie.com;+1 (610) 964-2588;N/A
Media;Food & Drink;Restaurants;Azie in Media;http://www.azie-restaurant.com/;+1 (610) 566-4750;N/A
Primos;Food & Drink;Restaurants;B&B Restaurant and Cafe ;https://cafebb.getbento.com;+1 (610) 394-1212;N/A
Ardmore;Food & Drink;Restaurants;Bagels & Company - Ardmore;https://www.thebagelsandco.com/location/ardmore/;N/A;N/A
Swarthmore;Food & Drink;Restaurants;Bamboo Bistro;http://www.bamboobistropa.com;+1 (610) 328-6888;N/A
Bryn Mawr;Food & Drink;Restaurants;Bar Avalon;https://www.avalonrestaurant.net;+1 (610) 520-9700;N/A
Media;Food & Drink;Restaurants;Barnaby's of America;http://www.barnabysaston.com;+1 (610) 558-1929;N/A
Havertown;Food & Drink;Restaurants;Barnabys Restaurant & pub;http://www.barnabyshavertown.com/;+1 (610) 789-1885;N/A
Prospect Park;Food & Drink;Restaurants;Basil Leaf Cafe;N/A;+1 (610) 522-5226;N/A
Upper Darby;Food & Drink;Restaurants;Beijing Restaurant;http://beijingchinesewaldorf.com/;+1 (610) 352-5866;N/A
Springfield;Food & Drink;Restaurants;Bertucci's Italian Restaurant;https://locations.bertuccis.com/us/pa/springfield/965-baltimore-pike;+1 (610) 543-8079;N/A
Thornton;Food & Drink;Restaurants;Bierhaul;http://www.bierhaul.com;+1 (610) 550-3440;N/A
Aston;Food & Drink;Restaurants;Big Bad Wolf Barbeque;https://www.facebook.com/Big-Bad-Wolf-Barbeque-BBQ-189859244452388/;+1 (484) 480-4676;N/A
Prospect Park;Food & Drink;Restaurants;Big Bowls;N/A;N/A;N/A
Newtown Square;Food & Drink;Restaurants;Bistro F;N/A;+1 (610) 355-1918;N/A
Wayne;Food & Drink;Restaurants;Black Powder Tavern;http://www.blackpowdertavern.com;+1 (610) 293-9333;N/A
Havertown;Food & Drink;Restaurants;Boardwalk Vegan;http://boardwalkvegan.com;+1 (484) 453-8798;N/A
Newtown Square;Food & Drink;Restaurants;Bonefish Grill;https://locations.bonefishgrill.com/pennsylvania/newtown-square/4889-w.-chester-pike;+1 (610) 355-1784;N/A
Media;Food & Drink;Restaurants;Brick & Brew Media;https://www.bricknbrewpub.com/media;+1 (484) 443-8441;N/A
Swarthmore;Food & Drink;Restaurants;Broad Table Tavern;https://theinnatswat.com/broad-table-tavern/about/;+1 (610) 543-7500;N/A
Chester;Food & Drink;Restaurants;Brunchaholics - Chester;N/A;+1 (484) 369-0901;N/A
Ardmore;Food & Drink;Restaurants;Buena Vista;https://www.buenavistamex.com/ardmore-pa;+1 (610) 649-3041;N/A
Springfield;Food & Drink;Restaurants;Buona Sera Ristorante;https://www.buonaserapa.com;+1 (610) 548-3810;N/A
Glen Mills;Food & Drink;Restaurants;California Tortilla;https://californiatortilla.com/location/glen-mills-concordville/;+1 (610) 358-5880;N/A
Boothwyn;Food & Drink;Restaurants;Car-Mira's Deli;http://www.carmirasdeli.com/;+1 (610) 494-9799;N/A
Chester;Food & Drink;Restaurants;Caribbean Way;N/A;+1 (484) 474-7732;N/A
Bryn Mawr;Food & Drink;Restaurants;Carina Sorella;https://www.carinasorella.com;+1 (610) 596-9166;N/A
Ardmore;Food & Drink;Cafes;Carlino's Market;https://www.carlinosmarket.com/ardmore-location;+1 (610) 649-4046;N/A
Newtown Square;Food & Drink;Restaurants;Carmine's Eatery;http://carmineseatery.com;+1 (610) 356-9009;N/A
Drexel Hill;Food & Drink;Restaurants;Casey's;https://www.caseysdh.com/;+1 (610) 789-7575;N/A
Newtown Square;Food & Drink;Restaurants;Casey's Public House;http://www.caseysns.com/;+1 (610) 353-1212;N/A
Ridley Park;Food & Drink;Restaurants;Casey's Ridley Park;https://www.caseysrp.com;+1 (484) 540-7524;N/A
Ardmore;Food & Drink;Restaurants;CAVA;http://cava.com/;+1 (484) 282-3242;N/A
Glen Mills;Food & Drink;Restaurants;CAVA;http://cava.com/;+1 (484) 848-5103;N/A
Newtown Square;Food & Drink;Restaurants;CAVA;http://cava.com/;+1 (484) 421-2112;N/A
Glenolden;Food & Drink;Restaurants;Cedar Craft & Kitchen;http://barcck.com;+1 (610) 537-7003;N/A
Chadds Ford;Food & Drink;Restaurants;Chadds Ford Tavern;https://www.thecftavern.com;+1 (484) 800-4084;N/A
Chester;Food & Drink;Restaurants;Chang Jiang Chinese Restaurant;N/A;+1 (610) 874-4850;N/A
Newtown Square;Food & Drink;Restaurants;Charlotte's Restaurant;http://charlottesrestaurant.com/;+1 (610) 356-7100;N/A
Woodlyn;Food & Drink;Restaurants;Cheezy Vegan;https://thecheezyvegan.com/;+1 (610) 543-2300;N/A
Garnet Valley;Food & Drink;Restaurants;Chesapeake Crab Company;https://www.chesapeakecrabco.com;+1 (610) 494-4003;N/A
Clifton Heights;Food & Drink;Restaurants;Chicken & Teri;N/A;+1 (484) 466-3996;N/A
Upper Chichester;Food & Drink;Restaurants;Chickos Chicken;https://www.chickoschicken.com;+1 (302) 507-8181;N/A
Media;Food & Drink;Restaurants;Chikara Sushi & Asian Bistro;N/A;+1 (610) 892-8888;N/A
Brookhaven;Food & Drink;Restaurants;Chili's;https://www.chilis.com/locations/us/pennsylvania/brookhaven/brookhaven;+1 (484) 480-3442;N/A
Boothwyn;Food & Drink;Restaurants;China Dragon Chinese Restaurant;http://chinadragonpa.com;+1 (610) 494-4559;N/A
Green Ridge;Food & Drink;Restaurants;China Dynasty;http://chinadynastyaston.com;+1 (610) 242-9296;N/A
Ridley Park;Food & Drink;Restaurants;China House;https://www.chinahouserp.com/locationinfo;+1 (610) 532-1800;N/A
Drexel Hill;Food & Drink;Restaurants;China King;http://chinakingdrexelhill.com;+1 (610) 259-4382;N/A
East Lansdowne;Food & Drink;Restaurants;China King;N/A;+1 (610) 622-6658;N/A
Collingdale;Food & Drink;Restaurants;China Moon;http://chinamoonankeny.com;+1 (610) 522-5622;N/A
Newtown Square;Food & Drink;Restaurants;China Wok;N/A;+1 (610) 359-7577;N/A
Upper Chichester;Food & Drink;Restaurants;Chinatown Chinese Restaurant;https://riny.top/china-town-chinese-restaurant;+1 (610) 497-1230;N/A
Wayne;Food & Drink;Restaurants;Chinese Delight Restaurant;https://www.chinesedelightwayne.com;+1 (610) 687-1866;N/A
Bryn Mawr;Food & Drink;Restaurants;Chopt;https://www.choptsalad.com;+1 (484) 381-0233;N/A
Wayne;Food & Drink;Restaurants;Christopher's: A Neighborhood Place;http://www.christophersaneighborhoodplace.com/;+1 (610) 687-6558;N/A
Yeadon;Food & Drink;Restaurants;Coconut Breeze Cuisine;http://coconutbreezecuisine.com/;+1 (610) 622-1121;N/A
Morton;Food & Drink;Restaurants;Coffee Station;http://www.coffeestationpa.com;+1 (610) 328-1816;N/A
Chadds Ford;Food & Drink;Restaurants;Concord Bagel N Deli Cafe;https://concordbagel.com;+1 (484) 841-6538;N/A
Chadds Ford;Food & Drink;Restaurants;Concord Steaks;N/A;+1 (610) 558-2569;N/A
Brookhaven;Food & Drink;Restaurants;Coopers Super Bar;https://www.instagram.com/coopers_superbar/?hl=en;+1 (267) 969-8016;N/A
Broomall;Food & Drink;Restaurants;Country Squire Diner;http://www.csdiner.com;+1 (610) 353-0550;N/A
Yeadon;Food & Drink;Restaurants;Crab Plus;https://www.crabpluspa.com;+1 (610) 713-5123;N/A
Springfield;Food & Drink;Restaurants;Crack Crab - Springfield;https://www.crackcrab.net;+1 (610) 665-3333;N/A
Ridley Park;Food & Drink;Restaurants;Cracker Barrel Old Country Store;https://www.crackerbarrel.com/Locations/States/pa/ridley-park/743/;+1 (610) 521-1567;N/A
Drexel Hill;Food & Drink;Bars;Craig's Tavern;http://craigs-tavern.poi.place;+1 (610) 853-0898;N/A
Chester;Food & Drink;Restaurants;Crown Chicken & Grill;N/A;+1 (610) 874-7590;N/A
Prospect Park;Food & Drink;Restaurants;Da Chen Chinese Restaurant;https://da-chen-chinese-restaurant.hub.biz;+1 (610) 461-4000;N/A
Darby;Food & Drink;Restaurants;Da spot;N/A;N/A;N/A
Springfield;Food & Drink;Restaurants;Dairy Cottage;https://www.dairycottage.com;+1 (610) 328-4875;N/A
Wayne;Food & Drink;Restaurants;DanDan;https://www.dandanrestaurant.com/location/wayne-1/;+1 (484) 580-8558;N/A
Ardmore;Food & Drink;Restaurants;DanDan - Ardmore;https://www.dandanrestaurant.com/location/ardmore/;+1 (484) 412-8178;N/A
Glen Mills;Food & Drink;Restaurants;Del Pez Mexican Gastropub;https://www.delpezmexicanpub.com;+1 (484) 842-1363;N/A
Yeadon;Food & Drink;Restaurants;Delaney's Soul Food;N/A;+1 (610) 624-9044;N/A
Broomall;Food & Drink;Restaurants;DELCO Steaks;https://delcosteaks.com;+1 (610) 356-1192;N/A
Folsom;Food & Drink;Restaurants;Delco Steaks;https://www.delcosteaks.com;+1 (484) 497-6600;N/A
Folsom;Food & Drink;Restaurants;Della Rocca's;N/A;+1 (610) 534-3350;N/A
Drexel Hill;Food & Drink;Restaurants;DeMarco's;N/A;+1 (610) 622-4222;N/A
Essington;Food & Drink;Restaurants;Denny's;https://locations.dennys.com/pa/essington/248774;+1 (833) 581-6916;N/A
Media;Food & Drink;Restaurants;Departure;https://departuredelco.com;+1 (610) 502-3833;N/A
Ardmore;Food & Drink;Restaurants;DePaul's Table;https://www.depaulstable.com/;+1 (610) 589-0500;N/A
Broomall;Food & Drink;Restaurants;Dickey's Barbecue Pit;https://www.dickeys.com;+1 (610) 353-0550;N/A
Media;Food & Drink;Restaurants;DiFabio's Market & Tap;https://difabiosevents.com/;+1 (484) 444-0850;N/A
Glen Mills;Food & Drink;Restaurants;Difabio's Restaurant;https://difabiosevents.com;+1 (484) 227-7999;N/A
Glen Mills;Food & Drink;Restaurants;Difabio's Restaurant;https://difabiosevents.com;+1 (484) 227-7999;N/A
Media;Food & Drink;Restaurants;Dim Sum Mania;http://www.dimsummania.com;+1 (610) 557-8757;N/A
Green Ridge;Food & Drink;Restaurants;DiScala Deli & Specialty Foods;https://www.discaladeli.com/;+1 (610) 485-2224;N/A
Springfield;Food & Drink;Restaurants;Dom & Mia's;http://www.domandmias.com;+1 (610) 808-6381;N/A
Bryn Mawr;Food & Drink;Restaurants;Don Mezcal Mexican Grill;N/A;+1 (484) 222-6173;N/A
Drexel Hill;Food & Drink;Restaurants;Dragon II Chinese Restaurant;https://www.dragon2drexelhill.com;+1 (610) 626-8822;N/A
Bryn Mawr;Food & Drink;Restaurants;Dua Mediterranean Kitchen;https://duarest.com;+1 (484) 380-2053;N/A
Garnet Valley;Food & Drink;Restaurants;Duffer's Mill;https://www.dufferspa.com/location/duffers-mill/;+1 (610) 859-0011;N/A
Glen Mills;Food & Drink;Restaurants;Duffer's Tavern;https://www.dufferspa.com/location/duffers-tavern/;+1 (610) 358-5050;N/A
Upper Darby;Food & Drink;Restaurants;El Cuscatleco;N/A;+1 (484) 461-3156;N/A
Ardmore;Food & Drink;Restaurants;El Limon;https://ellimontaquerias.com;+1 (484) 413-2999;N/A
Morton;Food & Drink;Restaurants;El Limon;https://ellimontaquerias.com;+1 (610) 222-6800;N/A
Upper Darby;Food & Drink;Restaurants;El Rinconcito Restaurant;https://elrinconcitoecuatoriano.com;+1 (610) 713-6313;N/A
Parkside;Food & Drink;Restaurants;Elbas Deli & Restaurant;N/A;+1 (610) 245-9420;N/A
Lansdowne;Food & Drink;Restaurants;Empire Diner;N/A;+1 (610) 622-1662;N/A
Bryn Mawr;Food & Drink;Restaurants;EXIT 13;http://www.exit13gastrobar.com;+1 (610) 525-3842;N/A
Glen Mills;Food & Drink;Restaurants;Fava Ristorante Italiano;https://favaglenmills.com;+1 (484) 840-8603;N/A
Bryn Mawr;Food & Drink;Restaurants;Fellini Cafe Bryn Mawr;https://www.fellinicafebrynmawr.com;+1 (610) 527-5200;N/A
Media;Food & Drink;Restaurants;Fellini Cafe of Media;http://www.felliniscafe.com;+1 (610) 892-7616;N/A
Garnet Valley;Food & Drink;Restaurants;Fire Nashville Hot Chicken;http://www.firehotchicken.com;+1 (484) 490-6172;N/A
Chadds Ford;Food & Drink;Restaurants;Firebirds Wood Fired Grill;https://firebirdsrestaurants.com/chadds-ford;+1 (484) 785-6880;N/A
Springfield;Food & Drink;Restaurants;First Watch;https://www.firstwatch.com/locations/springfield;+1 (484) 573-2773;N/A
Villanova;Food & Drink;Restaurants;First Watch;https://www.firstwatch.com/locations/villanova/;+1 (610) 527-3447;N/A
Wayne;Food & Drink;Restaurants;First Watch;https://www.firstwatch.com/locations/wayne/;+1 (610) 686-3800;N/A
Aldan;Food & Drink;Restaurants;Flavor of India;https://flavorofindiamenu.com;+1 (610) 783-3955;N/A
Folcroft;Food & Drink;Restaurants;Folcroft Original;https://folcroftpizzamenu.com;+1 (610) 532-5100;N/A
Yeadon;Food & Drink;Restaurants;Fork N Fingers African Restaurant;http://www.forkandfingers.com;+1 (610) 259-5733;N/A
Folsom;Food & Drink;Restaurants;Frontier Saloon;N/A;+1 (610) 534-1424;N/A
Chester;Food & Drink;Restaurants;Frontline Island Bar And Grill;https://frontlinebar.com;+1 (610) 364-4034;N/A
Marcus Hook;Food & Drink;Restaurants;Garibaldi's;N/A;+1 (610) 485-6158;N/A
Holmes;Food & Drink;Restaurants;Gateway Diner;https://gatewaydiner.net;+1 (610) 532-2825;N/A
Aldan;Food & Drink;Restaurants;Geo's Steaks;https://www.geossteaks.com/;+1 (484) 466-3708;N/A
Havertown;Food & Drink;Restaurants;Giampino's Cucina Italiana;http://www.giampinos.com;+1 (610) 853-9330;N/A
Drexel Hill;Food & Drink;Restaurants;Ginza Sushi Hibachi Steak House;https://ginzagarden.com;+1 (484) 461-2383;N/A
Parkside;Food & Drink;Restaurants;Golden Garden;https://www.goldengardenpa.com;+1 (610) 876-9070;N/A
Aldan;Food & Drink;Restaurants;Golden Place Chinese Restaurant;N/A;+1 (610) 259-5988;N/A
Darby;Food & Drink;Restaurants;Golden Star American & Chinese Food;N/A;+1 (610) 534-8888;N/A
Villanova;Food & Drink;Restaurants;Goodness Bowls;https://www.goodnessbowls.com/;+1 (484) 380-2353;N/A
Bryn Mawr;Food & Drink;Restaurants;Grand Middle East;http://grandmiddleeast.com;N/A;N/A
Drexel Hill;Food & Drink;Restaurants;Great Wall Chinese Restaurant;http://www.greatwalldrexelhill.com;+1 (610) 853-3464;N/A
Folsom;Food & Drink;Restaurants;Great Wall Chinese Restaurant;http://www.greatwallbedford.com;+1 (610) 586-8889;N/A
Upland;Food & Drink;Restaurants;Great Wall Chinese Restaurant;https://greatwallupland.com;+1 (610) 872-0330;N/A
Garnet Valley;Food & Drink;Restaurants;Grecian Delights;http://www.getdelighted.com;+1 (215) 205-2647;N/A
Darby;Food & Drink;Restaurants;Green China;N/A;+1 (610) 586-2233;N/A
Haverford;Food & Drink;Restaurants;Green Engine Coffee Co.;http://www.greenenginecoffee.com;+1 (484) 416-6164;N/A
Drexel Hill;Food & Drink;Restaurants;Green Herb Thai Cuisine;https://www.greenherbthaicuisine.com;+1 (484) 455-7607;N/A
Aston;Food & Drink;Restaurants;Gridiron Pub;https://gridironpub.com;+1 (484) 483-9301;N/A
Rosemont;Food & Drink;Restaurants;Gullifty's;http://www.gulliftys.com/;+1 (610) 525-1851;N/A
Darby;Food & Drink;Restaurants;Gulu West African Restaurant;N/A;+1 (484) 497-8666;N/A
Drexel Hill;Food & Drink;Restaurants;H&B New York Deli & More;http://hbperuvianfood.com;+1 (484) 453-8156;N/A
Holmes;Food & Drink;Restaurants;Haggerty's Cafe;https://www.facebook.com/haggertyscafe;+1 (610) 461-9534;N/A
Prospect Park;Food & Drink;Restaurants;Hallow Bamboo;N/A;+1 (484) 494-6265;N/A
Chadds Ford;Food & Drink;Restaurants;Hank's Place;http://hanksplacechaddsford.com/;+1 (610) 388-7061;N/A
Havertown;Food & Drink;Restaurants;Hanoi's Pho;http://hanoispho-pa.com;+1 (484) 454-5105;N/A
Chester;Food & Drink;Restaurants;Happy House;N/A;+1 (610) 876-3388;N/A
Springfield;Food & Drink;Restaurants;Happy Wok II;http://happy-wok-ii.edan.io;+1 (610) 328-3663;N/A
Glen Mills;Food & Drink;Restaurants;Harvest Seasonal Grill & Wine Bar;http://harvestseasonalgrill.com;+1 (610) 358-1005;N/A
Glen Mills;Food & Drink;Restaurants;Heroes Bar & Grill;https://heroesbardelco.com;+1 (610) 358-3600;N/A
Ardmore;Food & Drink;Restaurants;Herosame;http://www.herosame.com;+1 (610) 649-7192;N/A
Springfield;Food & Drink;Restaurants;Hibachi Japenese Steakhouse and Sushi Bar;N/A;+1 (610) 690-4911;N/A
Newtown Square;Food & Drink;Restaurants;Hiramasa;https://hiramasapa.com;+1 (484) 420-4023;N/A
Wynnewood;Food & Drink;Restaurants;honeygrow;https://www.honeygrow.com/location/wynnewood/;+1 (484) 418-8900;N/A
Lansdowne;Food & Drink;Restaurants;Hong Kong kitchen;N/A;+1 (610) 623-2138;N/A
Woodlyn;Food & Drink;Restaurants;Hunts Annex Lounge;https://www.facebook.com/Hunts1311/;+1 (610) 833-2344;N/A
Upper Darby;Food & Drink;Restaurants;IHOP;https://restaurants.ihop.com/en-us/pa/upper-darby/breakfast-101-s-69th-st-3481;+1 (610) 352-4467;N/A
Bryn Mawr;Food & Drink;Restaurants;Il fiore;N/A;+1 (484) 380-2059;N/A
Glen Mills;Food & Drink;Restaurants;Il Granaio Italian Restaurant;http://www.ilgranaiopa.com;+1 (610) 459-8469;N/A
Prospect Park;Food & Drink;Restaurants;Imperial House;http://www.imperialhousechinese.com;+1 (610) 534-4251;N/A
Mendenhall;Food & Drink;Restaurants;Inn at Mendenhall Restaurant;https://www.mendenhallinn.com/;+1 (610) 388-1181;N/A
Media;Food & Drink;Restaurants;Iron Hill Brewery & Restaurant;https://www.ironhillbrewery.com/media-pa;+1 (610) 627-9000;N/A
Brookhaven;Food & Drink;Restaurants;It's Just Wings;https://locations.itsjustwings.com/pa/brookhaven/brookhaven-its-just-wings;+1 (682) 688-5937;N/A
East Lansdowne;Food & Drink;Restaurants;Italian Kitchen;http://www.italiankitchenlansdowne.com;+1 (610) 259-6800;N/A
Havertown;Food & Drink;Restaurants;J D McGillicuddy's;http://www.jdmcgillicuddys.com;+1 (484) 454-5289;N/A
Essington;Food & Drink;Restaurants;J.D. McGillicuddy's Tinicum;https://mcgillicuddystinicum.com;+1 (610) 521-9860;N/A
Ardmore;Food & Drink;Restaurants;Jack McShea's;https://www.jackmcsheas-ardmore.com;+1 (484) 416-3547;N/A
Springfield;Food & Drink;Restaurants;Jim's Steaks;https://www.jimssteaks.com;+1 (610) 544-8400;N/A
Bryn Mawr;Food & Drink;Restaurants;Jin Ding Restaurant;https://jindingbrynmawr.com;+1 (610) 527-3200;N/A
Green Ridge;Food & Drink;Restaurants;John's Corner Deli;https://www.facebook.com/people/Johns-Corner-Deli/100063536560536/;+1 (610) 494-1964;N/A
Chadds Ford;Food & Drink;Restaurants;JunXion Cafe & Market;N/A;+1 (610) 228-0405;N/A
Wayne;Food & Drink;Restaurants;Kabab Cafe;http://www.kababcafe.com;+1 (610) 975-5850;N/A
Springfield;Food & Drink;Restaurants;KAWA Japanese Cuisine;http://www.kawasushibar.com;+1 (484) 471-3300;N/A
Bryn Mawr;Food & Drink;Restaurants;Kelly's Taproom;http://kellystaproom.com;+1 (610) 520-9344;N/A
Upper Darby;Food & Drink;Restaurants;Kings and Queens Liberian Cuisine;http://www.kqlcafrica.com/;+1 (484) 466-3359;N/A
Chester;Food & Drink;Restaurants;L.A. Taco Bistro;N/A;+1 (484) 816-2178;N/A
Upper Darby;Food & Drink;Restaurants;La Bendición Restaurant;https://labendicionrestaurantpa.com/;+1 (484) 466-4629;N/A
Bryn Mawr;Food & Drink;Restaurants;La Cabra Brewing Smokehouse;https://www.lacabrabrewing.com/smokehouse;+1 (610) 526-2337;N/A
Media;Food & Drink;Restaurants;La Catrina Mexican Cuisine;https://www.lacatrinamedia.com;+1 (610) 355-4877;N/A
Media;Food & Drink;Restaurants;La Porta Ristorante;http://www.laportarestaurant.com;+1 (610) 358-5104;N/A
Sharon Hill;Food & Drink;Restaurants;Lagos Island Grille - Sharon Hill;https://www.lagosislandgrillemenu.com/;+1 (610) 426-3275;N/A
Newtown Square;Food & Drink;Restaurants;LaScala's Fire;http://www.lascalasfire.com;+1 (484) 900-2828;N/A
Villanova;Food & Drink;Restaurants;LaScala’s Fire;http://www.lascalasfire.com;+1 (484) 383-3339;N/A
Glen Mills;Food & Drink;Restaurants;Laspada's Original Steaks & Hoagies;http://www.laspadasgm.com;+1 (610) 459-1500;N/A
Upper Darby;Food & Drink;Restaurants;Le Mandingue;http://www.lemandinguephilly.com;+1 (484) 461-2981;N/A
Essington;Food & Drink;Restaurants;Lehmans Tavern and Restaurant;http://lehmansrestaurant.com/;+1 (610) 521-1696;N/A
Woodlyn;Food & Drink;Restaurants;Liberty Steaks & Hoagies;https://www.facebook.com/LibertySteaks/?rf=108097705898398;+1 (610) 872-9304;N/A
Ridley Park;Food & Drink;Restaurants;Little Hut Sandwich Shop;http://littlehutridley.com;+1 (610) 532-9679;N/A
Upper Darby;Food & Drink;Restaurants;Little Saigon;http://littlesaigonaz.com;+1 (610) 352-1002;N/A
Ardmore;Food & Drink;Restaurants;Local Wine & Kitchen;http://www.localwineandkitchen.com/;+1 (610) 896-4740;N/A
Ardmore;Food & Drink;Restaurants;Lola's Garden;https://www.lolasgardenrestaurant.com;+1 (484) 412-8011;N/A
Prospect Park;Food & Drink;Restaurants;Los Machetes Authentic Mexican Restaurant;https://los-machetes-authentic-mexican-restaurant.mapssite.site;+1 (484) 494-7188;N/A
Bryn Mawr;Food & Drink;Restaurants;Lovebird;http://www.lovebirdpa.com;+1 (484) 222-6554;N/A
Ardmore;Food & Drink;Restaurants;Macmart;N/A;+1 (445) 787-4438;N/A
Chester;Food & Drink;Restaurants;Madison Grille;https://madison-grille.hub.biz;+1 (610) 874-7662;N/A
Ardmore;Food & Drink;Restaurants;Maido! A Marketplace Of Japan;https://www.maidoardmore.com;+1 (484) 417-6745;N/A
Ardmore;Food & Drink;Restaurants;maman;https://mamannyc.com/locations/ardmore;+1 (484) 416-3295;N/A
Glenolden;Food & Drink;Restaurants;Manhattan Bagel;https://www.manhattanbagel.com/locations/glendolen/;+1 (610) 237-0586;N/A
Chadds Ford;Food & Drink;Restaurants;Margie’s Cuisine;https://www.margiescuisinellc.com;+1 (610) 228-0405;N/A
Havertown;Food & Drink;Restaurants;Mark Anthony's Paisano's;https://www.paisanospizza.net/;+1 (610) 449-5040;N/A
Clifton Heights;Food & Drink;Restaurants;Mary's Cafe;http://marys-cafe-clifton-heights.edan.io;+1 (610) 622-0306;N/A
Marcus Hook;Food & Drink;Restaurants;Maxi’s;https://www.facebook.com/maxismarcushook/;+1 (484) 483-9447;N/A
Ardmore;Food & Drink;Restaurants;McCloskey's Tavern;http://mccloskeystavern.com;+1 (610) 642-9280;N/A
Upper Darby;Food & Drink;Restaurants;Mediterranean Foods;http://mediterranean-bakery.com;+1 (610) 622-5955;N/A
Folsom;Food & Drink;Restaurants;Meximac;https://www.meximac.com;+1 (610) 522-2011;N/A
Woodlyn;Food & Drink;Restaurants;Michael's Sandwich Shop;N/A;+1 (610) 833-9919;N/A
Essington;Food & Drink;Restaurants;Millers Luncheonette;https://millers-luncheonette.mapssite.site;+1 (610) 521-4740;N/A
Brookhaven;Food & Drink;Restaurants;Mitchs NY Bagel & Deli;N/A;+1 (610) 565-8555;N/A
Media;Food & Drink;Restaurants;Mochiatsu;https://mochiatsu.com;+1 (484) 445-2170;N/A
Chester;Food & Drink;Restaurants;Moe's Southwest Grill;https://locations.moes.com/pa/chester/1-university-place;+1 (610) 490-7025;N/A
Marcus Hook;Food & Drink;Restaurants;Moma Mia's;N/A;+1 (610) 485-4150;N/A
Chester;Food & Drink;Restaurants;Momma Mia's Soul Food Sensation;https://momma-mia-s-soul-food-sensation.wsite.top/;+1 (610) 497-0402;N/A
Havertown;Food & Drink;Restaurants;Momoyama Ramen & Hawaiian BBQ II;https://www.facebook.com/MomoyamaRamenHawaiianBBQ2/;+1 (610) 881-5300;N/A
Glen Mills;Food & Drink;Restaurants;Morningside Cafe;https://www.morningsidecafeglenmills.com;+1 (484) 800-8947;N/A
Broomall;Food & Drink;Restaurants;Mrs. Marty's Deli;http://mrsmartysdeli.com;+1 (610) 359-1996;N/A
Collingdale;Food & Drink;Restaurants;Ms. Tiny's Jamaican Cuisine;https://www.instagram.com/mstinyscuisine/;+1 (267) 746-5505;N/A
Collingdale;Food & Drink;Restaurants;Musu’s Spot;N/A;+1 (610) 461-1531;N/A
Chester;Food & Drink;Restaurants;N Y Fried Chicken;https://mapz4.com/n-y-fried-chicken-580391-web;+1 (610) 876-3754;N/A
Chester;Food & Drink;Restaurants;N8RDs Family Kitchen;N/A;+1 (484) 490-6050;N/A
Sharon Hill;Food & Drink;Restaurants;Nékter Juice Bar;https://locations.nekterjuicebar.com/ll/us/pa/sharon-hills/101-102-henderson-dr/;+1 (347) 996-8744;N/A
Aston;Food & Drink;Restaurants;New Aston Palace;N/A;+1 (610) 485-8018;N/A
Collingdale;Food & Drink;Restaurants;New China;N/A;+1 (610) 586-6770;N/A
Drexel Hill;Food & Drink;Restaurants;New China City;http://www.newchinacitypa.com;+1 (610) 622-1085;N/A
Secane;Food & Drink;Restaurants;New Panda Restaurant;http://www.newpandasecane.com;+1 (610) 544-8557;N/A
Folsom;Food & Drink;Restaurants;Nifty Fifty's;https://www.niftyfiftys.com/ridley-township/;+1 (610) 583-1950;N/A
Newtown Square;Food & Drink;Restaurants;Nifty Fifty's;https://www.niftyfiftys.com/newtown-square/;+1 (484) 992-1950;N/A
Springfield;Food & Drink;Restaurants;Noodle Eighty Eight;http://www.noodle88springfield.com;+1 (484) 472-8777;N/A
Glenolden;Food & Drink;Restaurants;Not Just Wings;http://www.notjustwings.com;+1 (610) 461-9464;N/A
Ardmore;Food & Drink;Restaurants;Not Your Average Joe's;https://www.notyouraveragejoes.com/locations/pennsylvania/ardmore/;+1 (484) 708-1500;N/A
Wayne;Food & Drink;Restaurants;Nudy's Cafe;https://www.nudyscafes.com/locations/devon/;+1 (610) 687-1345;N/A
Chadds Ford;Food & Drink;Restaurants;Nudy's Cafe - Chadds Ford;https://www.nudyscafes.com/locations/chadds-ford/;+1 (610) 459-1200;N/A
Chester;Food & Drink;Restaurants;OB's Jamaican Restaurant;N/A;+1 (610) 874-4530;N/A
Collingdale;Food & Drink;Restaurants;Ocean House;http://www.oceanhouseinc.com;+1 (610) 653-1666;N/A
Woodlyn;Food & Drink;Restaurants;Ocean Super Buffet;https://www.facebook.com/people/Ocean-Super-Buffet/100094489467975/;+1 (484) 480-6148;N/A
Springfield;Food & Drink;Restaurants;Old Original Nick's Roast Beef;http://www.nicksroastbeef.com;+1 (610) 690-1112;N/A
Media;Food & Drink;Restaurants;Old State Tavern;https://www.facebook.com/OLDSTATETAVERN/;+1 (610) 566-9920;N/A
Springfield;Food & Drink;Restaurants;Olive Garden Italian Restaurant;https://www.olivegarden.com/locations/pa/springfield/springfield-pa-baltimore-pike/1764;+1 (610) 544-4196;N/A
Clifton Heights;Food & Drink;Restaurants;Olympic Diner;https://www.chamberofcommerce.com/.../7030797-olympic-diner;+1 (610) 284-3008;N/A
Thornton;Food & Drink;Restaurants;Orchard Tea Room;N/A;+1 (610) 800-9597;N/A
Boothwyn;Food & Drink;Restaurants;Oriental Pearl Restaurant;https://www.facebook.com/profile.php?id=100053614702686;+1 (484) 480-6538;N/A
Chadds Ford;Food & Drink;Restaurants;Osteria Ama;https://osteriaama-cf.com/;+1 (484) 800-8676;N/A
Chadds Ford;Food & Drink;Restaurants;Osteria Ama;https://osteriaama-cf.com/;N/A;N/A
Wayne;Food & Drink;Restaurants;Osushi - Wayne;https://wayne.osushinj.com;+1 (484) 584-4067;N/A
Ardmore;Food & Drink;Restaurants;Osushi Japanese Restaurant;http://www.osushipa.com;+1 (484) 412-8155;N/A
Bryn Mawr;Food & Drink;Restaurants;Otto By Polpo;https://ottobypolpo.com;+1 (610) 880-0001;N/A
Glen Mills;Food & Drink;Restaurants;Outback Steakhouse;https://locations.outback.com/pennsylvania/concord-township/701-byers-drive;+1 (610) 558-0644;N/A
Havertown;Food & Drink;Restaurants;Paddy Rooney's Pub;http://www.paddyrooneyspub.com;+1 (610) 789-6969;N/A
Ardmore;Food & Drink;Restaurants;Pak Yue Chinese Restaurant;http://www.pakyuechinese.com;+1 (610) 642-3514;N/A
Holmes;Food & Drink;Restaurants;Panda Asian Fusion;http://pandaasianholmes.com/;+1 (610) 583-8888;N/A
Woodlyn;Food & Drink;Restaurants;Panda House Restaurant;N/A;+1 (610) 876-6655;N/A
Sharon Hill;Food & Drink;Restaurants;Panda Restaurant;N/A;+1 (610) 586-0462;N/A
Wayne;Food & Drink;Restaurants;Paola's;http://www.paolascucina.com;+1 (610) 688-6898;N/A
Lansdowne;Food & Drink;Restaurants;Pearl Chinese & Japanese - Lansdowne;https://www.pearllansdowne.com;+1 (610) 623-3227;N/A
Media;Food & Drink;Restaurants;Peking Media Restaurant;https://www.pekingmedia.com/;+1 (610) 892-0115;N/A
Drexel Hill;Food & Drink;Restaurants;Perkins;https://www.perkinsrestaurants.com/locations/us/pa/drexel-hill/706-lansdowne-ave/;+1 (610) 622-4531;N/A
Brookhaven;Food & Drink;Restaurants;Phil & Jim's;https://philandjims.com/;+1 (610) 872-9472;N/A
Darby;Food & Drink;Restaurants;Philly Krave;https://www.phillykravefood.com;+1 (484) 206-8033;N/A
Clifton Heights;Food & Drink;Restaurants;Philly Wings & Things;https://www.facebook.com/Philly-Wings-Things-126370060771468/?ref=page_internal;+1 (610) 233-4063;N/A
Yeadon;Food & Drink;Restaurants;Philly's Best Steak Company;http://www.phillysbeststeak.com;+1 (610) 259-6000;N/A
Upper Darby;Food & Drink;Restaurants;Pica's Restaurant;https://picas-restaurantud.com;+1 (610) 789-7770;N/A
Havertown;Food & Drink;Restaurants;Piccolo Joe Coffee Bar;http://www.piccolojoecoffee.com;+1 (610) 449-3590;N/A
Wayne;Food & Drink;Restaurants;Playa Bowls;https://www.playabowls.com/location/villanova-wayne-pa;+1 (267) 326-5133;N/A
Brookhaven;Food & Drink;Restaurants;Po-Boy’s Kitchen & Catering;N/A;+1 (215) 292-0187;N/A
Glen Mills;Food & Drink;Restaurants;Poke Bros;https://eatpokebros.com/location/glen-mills/;+1 (484) 574-8195;N/A
Lansdowne;Food & Drink;Restaurants;Port Royal Cuisine;N/A;+1 (484) 466-3447;N/A
Green Ridge;Food & Drink;Restaurants;PrimoHoagies;https://www.primohoagies.com/location/Aston-PA;+1 (610) 497-1611;N/A
Havertown;Food & Drink;Restaurants;PrimoHoagies;https://www.primohoagies.com/location/Havertown-PA;+1 (484) 454-3089;N/A
Prospect Park;Food & Drink;Restaurants;PrimoHoagies;https://www.primohoagies.com/location/Prospect-Park-PA;+1 (610) 237-7466;N/A
Springfield;Food & Drink;Restaurants;PrimoHoagies;https://www.primohoagies.com/location/Springfield-PA;+1 (610) 543-2808;N/A
Glen Mills;Food & Drink;Restaurants;PureBread Deli;https://purebreaddeli.com/glen-mills-pennsylvania/;+1 (610) 358-9866;N/A
Chadds Ford;Food & Drink;Restaurants;Queen Cuisine Chinese Restaurant;https://www.queencuisinechinesepa.com;+1 (610) 358-2665;N/A
Media;Food & Drink;Restaurants;Rayaki Ramen Restaurant;http://www.rayakiramen.com;+1 (484) 442-8340;N/A
Springfield;Food & Drink;Restaurants;Red Lobster;https://www.redlobster.com/seafood-restaurants/locations/pa/springfield/1-baltimore-pike;+1 (610) 544-0315;N/A
Newtown Square;Food & Drink;Restaurants;Rey Azteca;https://reyaztecanewtownsquare.com;+1 (484) 427-7803;N/A
Chester;Food & Drink;Restaurants;Rice & Beans;N/A;+1 (215) 999-8417;N/A
Ardmore;Food & Drink;Restaurants;Ripplewood Whiskey & Craft;http://www.ripplewoodbar.com;+1 (610) 486-7477;N/A
Brookhaven;Food & Drink;Restaurants;Ro-Lynn Deli;http://www.rolynndeli.com/;+1 (610) 872-9575;N/A
Newtown Square;Food & Drink;Restaurants;Rolling Stars;https://rollingstars.com;+1 (484) 420-4519;N/A
Clifton Heights;Food & Drink;Restaurants;Romarco's;https://www.romarcosdelco.com;+1 (610) 626-7414;N/A
Ardmore;Food & Drink;Restaurants;Rosa Mexicano;https://rosamexicano.com/location/ardmore/;+1 (610) 673-0870;N/A
Wayne;Food & Drink;Restaurants;Rosalie;http://www.rosaliewayne.com;+1 (610) 977-0600;N/A
Ridley Park;Food & Drink;Restaurants;Rosemary;http://rosemaryrp.com;+1 (610) 671-3770;N/A
Brookhaven;Food & Drink;Restaurants;Route 352 Diner;https://www.facebook.com/pages/category/American-Restaurant/Rt-352-Diner-129777767089732/;+1 (610) 872-0212;N/A
Chester;Food & Drink;Restaurants;S&H MARKET;N/A;+1 (610) 874-7977;N/A
Upper Darby;Food & Drink;Restaurants;SA CAFE;http://sacafepa.com;+1 (610) 999-8264;N/A
Upper Darby;Food & Drink;Restaurants;Sabor Latino Restaurant - Night Club;N/A;+1 (610) 352-8414;N/A
Wayne;Food & Drink;Restaurants;Saffron Indian Kitchen;http://www.saffronofphilly.com;+1 (610) 254-9100;N/A
Glen Mills;Food & Drink;Restaurants;Saffron Indian Market;http://saffronindianmarket.com/;+1 (484) 800-4097;N/A
Ardmore;Food & Drink;Restaurants;Sake Mian;http://www.sakeramen-ardmore.com;+1 (610) 601-9166;N/A
Havertown;Food & Drink;Restaurants;Sampan Inn;http://www.sampaninn.com;+1 (610) 446-3000;N/A
Rosemont;Food & Drink;Restaurants;Samurai Japanese Restaurant;http://samuraibrynmawr.com;+1 (610) 525-8000;N/A
Folsom;Food & Drink;Restaurants;Santino's Tap & Table;http://santinostapandtable.com;+1 (610) 572-7270;N/A
Springfield;Food & Drink;Pizza Shops;Sbarro;https://sbarro.com/locations/pa/springfield/springfield-mall/;+1 (610) 328-1283;N/A
Boothwyn;Food & Drink;Restaurants;Seafood Hibachi Gourmet Asian Restaurant;https://www.facebook.com/people/Seafood-Hibachi-Gourmet/100067100031029/?locale=nn_NO&_rdrr;+1 (610) 485-4147;N/A
Woodlyn;Food & Drink;Restaurants;Seafood Hut And Market;https://order.toasttab.com/online/seafoodhut;+1 (484) 480-8877;N/A
Newtown Square;Food & Drink;Restaurants;Sedona Taphouse;https://sedonataphouse.com/locations/newtown-square-pa;+1 (484) 420-6284;N/A
Ardmore;Food & Drink;Restaurants;Senorita's Mexican Taqueria;http://www.senoritastaqueria.com;+1 (610) 707-5505;N/A
Springfield;Food & Drink;Restaurants;Seoul Korean BBQ and Hot Pot;https://www.seoulbbqandhotpot.com;+1 (484) 472-8799;N/A
Media;Food & Drink;Restaurants;Shere-E-Punjab Indian Restaurant;https://shere-e-punjab.com;+1 (610) 891-0400;N/A
Havertown;Food & Drink;Restaurants;Shogun 3;https://www.shogunthree.com;+1 (610) 853-3939;N/A
Chester;Food & Drink;Restaurants;Showell's Seafood;N/A;+1 (610) 872-4996;N/A
Glenolden;Food & Drink;Restaurants;Shugar Shack;http://www.shugarshacksoulfood.com;+1 (215) 520-1006;N/A
Ardmore;Food & Drink;Restaurants;Songsan;https://www.facebook.com/songsanbbqardmore/?ref=page_internal;+1 (610) 642-3184;N/A
Havertown;Food & Drink;Restaurants;Sophie’s BBQ;http://www.sophiesbbq.com;+1 (484) 454-3074;N/A
Newtown Square;Food & Drink;Restaurants;Spice Indian Thai Bistro;http://www.spicebyob.com;+1 (610) 356-5262;N/A
Glen Mills;Food & Drink;Restaurants;Spread Bagelry;https://www.spreadbagelry.com/glen-mills;+1 (484) 574-8105;N/A
Springfield;Food & Drink;Restaurants;Springfield Ale House;http://www.springfieldalehousedelco.com;+1 (484) 472-6742;N/A
Springfield;Food & Drink;Restaurants;Springfield Diner;http://thespringfielddiner.com;+1 (610) 338-0404;N/A
Media;Food & Drink;Restaurants;State Street Pub;https://www.statestreetpubmedia.com;+1 (610) 627-2515;N/A
Media;Food & Drink;Restaurants;Stephen's on State;https://stephensonstate.com/?fbclid=IwAR32jGQFrwOakLSBlzRR0qN9uSwtPePC5rFN7NfrdzUl-HMwef15D-JOIss;+1 (610) 891-8900;N/A
Ridley Park;Food & Drink;Restaurants;Stinger's Waterfront;http://www.stingerssecane.com;+1 (484) 540-7868;N/A
Aston;Food & Drink;Restaurants;Sundance Saloon;https://www.facebook.com/sundancesaloonaston/;+1 (610) 494-9725;N/A
Wayne;Food & Drink;Restaurants;Sushi Nami;http://www.sushinamiwayne.com;+1 (610) 808-9100;N/A
Glen Mills;Food & Drink;Restaurants;Sushi Xtreme 2;https://www.sushixtreme2.net;+1 (484) 800-8727;N/A
Swarthmore;Food & Drink;Restaurants;Swarthmore CO-OP;https://swarthmore.coop/;+1 (610) 543-9805;N/A
Wayne;Food & Drink;Restaurants;sweetgreen;https://www.sweetgreen.com/;+1 (215) 398-1269;N/A
Boothwyn;Food & Drink;Restaurants;Tacos Mexiko;https://www.tacosmexiko.com;+1 (484) 483-9601;N/A
Marcus Hook;Food & Drink;Restaurants;TaGo's Food Group;https://tagosfood.com;+1 (484) 745-4800;N/A
Glen Mills;Food & Drink;Restaurants;Taichi Bubble Tea;http://taichibubbletea.com;+1 (484) 800-8104;N/A
Ridley Park;Food & Drink;Restaurants;Talluto's Authentic Italian Food;https://www.tallutos.com/index.php/ridley-park-store-hours;+1 (610) 534-0669;N/A
Folsom;Food & Drink;Restaurants;Tanglewood Fire and Smoke;https://www.tanglewoodfireandsmoke.com;+1 (610) 583-2103;N/A
Drexel Hill;Food & Drink;Restaurants;Tank & Libby’s;https://tankandlibbys.com;+1 (484) 455-7527;N/A
Bryn Mawr;Food & Drink;Restaurants;Tao One;http://taoonepa.com;+1 (610) 615-5942;N/A
Glen Mills;Food & Drink;Restaurants;Taqueria El Chavo Del Ocho;N/A;+1 (610) 358-0800;N/A
Upper Darby;Food & Drink;Restaurants;Taqueria Juanchito;N/A;+1 (484) 461-3034;N/A
Newtown Square;Food & Drink;Restaurants;Teca;https://tecanewtownsquare.com;+1 (484) 420-4010;N/A
Newtown Square;Food & Drink;Restaurants;Teikoku Restaurant;http://www.teikokurestaurant.com;+1 (610) 644-8270;N/A
Media;Food & Drink;Restaurants;Temaki Sushi Bar;https://temakisushibarmedia.com;+1 (610) 566-5363;N/A
Wayne;Food & Drink;Restaurants;Teresa's Cafe;http://www.teresas-cafe.com;+1 (610) 293-9909;N/A
Upper Darby;Food & Drink;Restaurants;Teriyaki;http://www.teriyakiupperdarby.com;+1 (484) 469-4823;N/A
Glen Mills;Food & Drink;Restaurants;Terrain Cafe;https://www.shopterrain.com/pages/glen-mills-restaurant;+1 (610) 459-6030;N/A
Glenolden;Food & Drink;Restaurants;Texas Fresh Cuts Steaks & Hoagies;N/A;+1 (610) 365-3631;N/A
Glen Mills;Food & Drink;Restaurants;Texas Roadhouse;https://www.texasroadhouse.com/locations/320-concordvillepa;+1 (610) 459-1720;N/A
Drexel Hill;Food & Drink;Restaurants;Thai Aroy Dee;https://grubhub.com/restaurant/thai-aroy-dee-1002-warrior-rd-drexel-hill/307301;+1 (484) 453-8643;N/A
Folsom;Food & Drink;Restaurants;Thai Fusion Kitchen;https://www.thaifusionkitchenfolsom.com;+1 (484) 494-6376;N/A
Wayne;Food & Drink;Restaurants;The Blue Elephant;https://www.blueelephantwayne.com;+1 (484) 580-6142;N/A
Media;Food & Drink;Restaurants;The Court Diner Restaurant;https://www.facebook.com/MediaCourtdiner/;+1 (610) 566-4403;N/A
Norwood;Food & Drink;Restaurants;The Erin Pub;http://www.erinpubnorwood.com;+1 (610) 461-0991;N/A
Glenolden;Food & Drink;Restaurants;The Fainting Goat;https://www.faintinggoatpa.com;+1 (484) 497-8609;N/A
Chadds Ford;Food & Drink;Restaurants;The Gables at Chadds Ford;https://www.thegablesatchaddsford.com;+1 (610) 388-7700;N/A
Wayne;Food & Drink;Restaurants;The Goat's Beard;https://www.thegoatsbeardphilly.com/wayne-location;+1 (484) 584-4979;N/A
Haverford;Food & Drink;Restaurants;The Grille At The Quadrangle;https://www.facebook.com/people/The-Quadrangle/61558367468355/;N/A;N/A
Springfield Township;Food & Drink;Restaurants;The Hungry A;https://www.facebook.com/The-Hungry-A-330753103239/;+1 (610) 543-9720;N/A
Prospect Park;Food & Drink;Restaurants;The Joy Of Nutrition;http://www.thejoyofnutrition.net;N/A;N/A
Bryn Mawr;Food & Drink;Restaurants;The Juice Pod;https://www.thejuicepod.com/bryn-mawr;+1 (484) 222-6469;N/A
Folsom;Food & Drink;Restaurants;The Juice Pod;https://www.thejuicepod.com/ridley;+1 (484) 497-5154;N/A
Trainer;Food & Drink;Restaurants;The Munchy Machine;http://www.munchymachine.com;+1 (484) 521-6019;N/A
Folsom;Food & Drink;Restaurants;The New American Bistro;https://robrot47.wixsite.com/new-american-bistro;+1 (484) 497-8111;N/A
Broomall;Food & Drink;Restaurants;The Original Bagel;https://www.facebook.com/theoriginalbagel/;+1 (610) 353-9600;N/A
Bryn Mawr;Food & Drink;Restaurants;The Pullman Restaurant & Bar;https://thepullmanrestaurant.com;+1 (610) 727-0777;N/A
Villanova;Food & Drink;Restaurants;The Refectory;https://refectorynova.com;+1 (610) 519-5786;N/A
Holmes;Food & Drink;Restaurants;The Ridley House;https://www.ridleyhousepa.com;+1 (610) 522-5400;N/A
Media;Food & Drink;Restaurants;The Rooster Diner;http://theroosterdiner.com;+1 (610) 455-4333;N/A
Media;Food & Drink;Restaurants;The Shebeen;https://www.townehousepa.com;N/A;N/A
Wayne;Food & Drink;Restaurants;The Silverspoon;http://www.silverspoonwayne.com;+1 (610) 688-7646;N/A
Sharon Hill;Food & Drink;Restaurants;The Taste You’re Looking For;http://www.tasteyourelookingfor.com;+1 (610) 532-3130;N/A
Chester;Food & Drink;Restaurants;The Tasty House Corp;N/A;+1 (484) 209-5864;N/A
Green Ridge;Food & Drink;Restaurants;The Tattoed Pig;https://www.thetattooedpig.com;+1 (267) 223-5528;N/A
Havertown;Food & Drink;Restaurants;The Yard Pub;https://theyardhavertown.com/;+1 (610) 789-1414;N/A
Upper Darby;Food & Drink;Restaurants;Tienda Y Taqueria El Pueblito;N/A;+1 (484) 466-4629;N/A
Chester;Food & Drink;Restaurants;TinyTim's Bbq;N/A;+1 (484) 456-0407;N/A
Brookhaven;Food & Drink;Restaurants;Tom Jones Family Restaurant;https://tomjonesrestaurant.com/;+1 (610) 874-1055;N/A
Havertown;Food & Drink;Restaurants;Tony Roni's;https://tonyronis.com/havertown;+1 (610) 853-5656;N/A
Brookhaven;Food & Drink;Restaurants;Toro's bbq;https://www.facebook.com/p/Toros-bbq-100076301691831/;+1 (267) 551-9753;N/A
Aston;Food & Drink;Restaurants;Towne & Country Cafe;http://towne-country-cafe.edan.io;+1 (610) 459-9585;N/A
Wayne;Food & Drink;Restaurants;Tredici;http://www.trediciitalianmarket.com;+1 (610) 254-0323;N/A
Brookhaven;Food & Drink;Restaurants;Tropical Smoothie Cafe;https://locations.tropicalsmoothiecafe.com/pa/brookhaven/5003-edgmont-ave.;+1 (484) 487-3114;N/A
Chester;Food & Drink;Restaurants;Truth Social Lounge;https://www.instagram.com/truthsociallounge/;+1 (610) 601-9167;N/A
Prospect Park;Food & Drink;Restaurants;Tumble Inn;https://www.facebook.com/TumbleInnDelco/;+1 (610) 583-7070;N/A
Bryn Mawr;Food & Drink;Restaurants;Turning Point;https://turningpointrestaurants.com;+1 (610) 708-5770;N/A
Newtown Square;Food & Drink;Restaurants;Turning Point;https://turningpointrestaurants.com;+1 (610) 540-7037;N/A
Media;Food & Drink;Restaurants;Two Fourteen;http://twofourteenrestaurant.com;+1 (724) 904-9139;N/A
Lansdowne;Food & Drink;Restaurants;Uncle Joe’s Crab House;https://unclejoescrabhouse.com;+1 (610) 284-9883;N/A
Chester;Food & Drink;Restaurants;Union Steaks;https://www.instagram.com/unionsteaks;+1 (610) 803-7897;N/A
Bryn Mawr;Food & Drink;Restaurants;Veekoo;https://veekoorestaurants.com/;+1 (610) 615-5182;N/A
Havertown;Food & Drink;Restaurants;Vic's sushi;https://www.havertownvicsushi.com;+1 (610) 707-5377;N/A
Swarthmore;Food & Drink;Restaurants;Vicky's Place;https://www.facebook.com/vickysplace417/;+1 (610) 328-2453;N/A
Ardmore;Food & Drink;Restaurants;Villa Artigiano;http://villaartigiano.com;+1 (484) 414-4997;N/A
Swarthmore;Food & Drink;Restaurants;Village Vine;http://villagevineswarthmore.com;+1 (484) 471-3997;N/A
Glen Mills;Food & Drink;Restaurants;Virundhu Indian Feast;https://virundhupa.com;+1 (484) 800-8656;N/A
Lansdowne;Food & Drink;Restaurants;Visions Restaurant;N/A;+1 (484) 461-4888;N/A
Clifton Heights;Food & Drink;Restaurants;Walt's Steaks;N/A;+1 (610) 623-3355;N/A
Brookhaven;Food & Drink;Restaurants;What a Crock Meals;http://whatacrockmeals.com;+1 (484) 474-0451;N/A
Glen Mills;Food & Drink;Restaurants;White Dog Cafe;https://www.whitedog.com/glenmills/;+1 (610) 822-2100;N/A
Haverford;Food & Drink;Restaurants;White Dog Cafe;https://www.whitedog.com/haverford/;+1 (610) 896-4556;N/A
Bryn Mawr;Food & Drink;Restaurants;White House Tajine;https://whtajine.com;+1 (484) 380-3532;N/A
Upper Darby;Food & Drink;Restaurants;Wilson’s Secret Sauce BBQ;https://secretsaucebbq.com;+1 (484) 453-8608;N/A
Brookhaven;Food & Drink;Restaurants;Wing Hing Chinese Restaurant;http://www.winghingbrookhavenpa.com;+1 (610) 874-0750;N/A
Woodlyn;Food & Drink;Restaurants;Wing Hut;https://order.toasttab.com/online/winghut;+1 (484) 487-3682;N/A
Drexel Hill;Food & Drink;Restaurants;Wing Station;https://www.wingstationinc.com/;+1 (610) 255-2808;N/A
Upper Darby;Food & Drink;Restaurants;Wingstop;https://www.wingstop.com/location/wingstop-1641-upper-darby-pa-19082/menu;+1 (215) 902-9464;N/A
Brookhaven;Food & Drink;Restaurants;Wonderful Chinese;http://www.wonderfulchinesebrookhaven.com;+1 (610) 499-8999;N/A
Bryn Mawr;Food & Drink;Restaurants;Xolo taqueria & tequila bar;https://www.xolotacos.com;+1 (610) 527-7777;N/A
Bryn Mawr;Food & Drink;Restaurants;Yamazaki Ramen;https://yamazakiramen.us/;+1 (484) 380-3780;N/A
Folcroft;Food & Drink;Restaurants;Yummy Yummy;N/A;+1 (610) 532-3053;N/A
Aston;Food & Drink;Restaurants;Zac's Hamburgers;https://zacsburgers.com;+1 (610) 485-8511;N/A
Crum Lynne;Food & Drink;Restaurants;Zac's Hamburgers;https://zacsburgers.com;+1 (610) 833-2233;N/A
Chadds Ford;Food & Drink;Wineries;Chaddsford Winery;https://www.chaddsford.com;+1 (610) 388-6221;N/A
Glenolden;Food & Drink;Wineries;East Cooke Winery;https://ecookewinery.com;+1 (267) 871-2229;N/A
Glen Mills;Food & Drink;Wineries;Grace Winery;http://www.gracewinery.com/;+1 (610) 459-4711;N/A
Garnet Valley;Food & Drink;Wineries;Paradocx Vineyard - C;N/A;+1 (610) 255-5684;N/A
Chadds Ford;Food & Drink;Wineries;Penns Woods Winery;http://www.pennswoodswinery.com/;+1 (610) 459-0808;N/A
Essington;Food & Drink;Wineries;Pennsylvania Wine Company;N/A;N/A;N/A
Glen Mills;Food & Drink;Wineries;Red Brick Winery;http://redbrickwinery.com;+1 (610) 558-4700;N/A
Broomall;Food & Drink;Wineries;Vino Bambino Winery;https://www.vinobambino.us;+1 (610) 299-5008;N/A
